gid,airspace_p,effectived,typ,ident,icaocode,nam,areacode,codedistve,uplimituni,codedistv1,lowerlimit,uomdistver,codewrkhr,upperlimit,lowerlimi1,entryrpt,txtlocalty,txtrmk_loc,relatedfir,classrmklo,emenda,emenda_fut,vertex_ind,vertex_par,vertex_p_1,vertex_p_2,distance,angle,LATITUDE,LONGITUDE
"823",1517.000000000000000,2022-12-29Z,SECTOR,SBAO_S2,SB,SECTOR 2C,SAM,STD,FL,SFC,FL,FT,H24,999.000000000000000,0.000000000000000,NO,"SETOR 2C; FIR ATL�NTICO","(1) SETOR 1A
(2) SETOR 1B
(3) SETOR 1C
(4) SETOR 2A
(5) SETOR 2B
(6) SETOR 2C
(7) SETOR 3B
(8) SETOR 3C

D-VOLMET",SBAO,"CLASSE DE  ESPA�O A�REO: \nA; Acima do FL245 (exclusive); \nA; Entre os FL145 (exclusive) e FL245 (inclusive) dentro das CTA e aerovias; \nD; Abaixo do FL145 (inclusive) dentro das CTA e aerovias; \nG; Abaixo do FL245 (inclusive) fora das CTA, aerovias",2022-12-29Z,2023-01-26Z,"0","0","0","0",0.00000000000000,126.70515858996195,2.168,-27.509
"823",1517.000000000000000,2022-12-29Z,SECTOR,SBAO_S2,SB,SECTOR 2C,SAM,STD,FL,SFC,FL,FT,H24,999.000000000000000,0.000000000000000,NO,"SETOR 2C; FIR ATL�NTICO","(1) SETOR 1A
(2) SETOR 1B
(3) SETOR 1C
(4) SETOR 2A
(5) SETOR 2B
(6) SETOR 2C
(7) SETOR 3B
(8) SETOR 3C

D-VOLMET",SBAO,"CLASSE DE  ESPA�O A�REO: \nA; Acima do FL245 (exclusive); \nA; Entre os FL145 (exclusive) e FL245 (inclusive) dentro das CTA e aerovias; \nD; Abaixo do FL145 (inclusive) dentro das CTA e aerovias; \nG; Abaixo do FL245 (inclusive) fora das CTA, aerovias",2022-12-29Z,2023-01-26Z,"1","0","0","1",0.16129144971662,126.71171389336259,2.071,-27.380
"823",1517.000000000000000,2022-12-29Z,SECTOR,SBAO_S2,SB,SECTOR 2C,SAM,STD,FL,SFC,FL,FT,H24,999.000000000000000,0.000000000000000,NO,"SETOR 2C; FIR ATL�NTICO","(1) SETOR 1A
(2) SETOR 1B
(3) SETOR 1C
(4) SETOR 2A
(5) SETOR 2B
(6) SETOR 2C
(7) SETOR 3B
(8) SETOR 3C

D-VOLMET",SBAO,"CLASSE DE  ESPA�O A�REO: \nA; Acima do FL245 (exclusive); \nA; Entre os FL145 (exclusive) e FL245 (inclusive) dentro das CTA e aerovias; \nD; Abaixo do FL145 (inclusive) dentro das CTA e aerovias; \nG; Abaixo do FL245 (inclusive) fora das CTA, aerovias",2022-12-29Z,2023-01-26Z,"2","0","0","2",0.32257678386643,126.71793880259578,1.975,-27.251
"823",1517.000000000000000,2022-12-29Z,SECTOR,SBAO_S2,SB,SECTOR 2C,SAM,STD,FL,SFC,FL,FT,H24,999.000000000000000,0.000000000000000,NO,"SETOR 2C; FIR ATL�NTICO","(1) SETOR 1A
(2) SETOR 1B
(3) SETOR 1C
(4) SETOR 2A
(5) SETOR 2B
(6) SETOR 2C
(7) SETOR 3B
(8) SETOR 3C

D-VOLMET",SBAO,"CLASSE DE  ESPA�O A�REO: \nA; Acima do FL245 (exclusive); \nA; Entre os FL145 (exclusive) e FL245 (inclusive) dentro das CTA e aerovias; \nD; Abaixo do FL145 (inclusive) dentro das CTA e aerovias; \nG; Abaixo do FL245 (inclusive) fora das CTA, aerovias",2022-12-29Z,2023-01-26Z,"3","0","0","3",0.48385628464189,126.72386778197021,1.878,-27.122
"823",1517.000000000000000,2022-12-29Z,SECTOR,SBAO_S2,SB,SECTOR 2C,SAM,STD,FL,SFC,FL,FT,H24,999.000000000000000,0.000000000000000,NO,"SETOR 2C; FIR ATL�NTICO","(1) SETOR 1A
(2) SETOR 1B
(3) SETOR 1C
(4) SETOR 2A
(5) SETOR 2B
(6) SETOR 2C
(7) SETOR 3B
(8) SETOR 3C

D-VOLMET",SBAO,"CLASSE DE  ESPA�O A�REO: \nA; Acima do FL245 (exclusive); \nA; Entre os FL145 (exclusive) e FL245 (inclusive) dentro das CTA e aerovias; \nD; Abaixo do FL145 (inclusive) dentro das CTA e aerovias; \nG; Abaixo do FL245 (inclusive) fora das CTA, aerovias",2022-12-29Z,2023-01-26Z,"4","0","0","4",0.64513023791183,126.72949970641862,1.782,-26.992
"823",1517.000000000000000,2022-12-29Z,SECTOR,SBAO_S2,SB,SECTOR 2C,SAM,STD,FL,SFC,FL,FT,H24,999.000000000000000,0.000000000000000,NO,"SETOR 2C; FIR ATL�NTICO","(1) SETOR 1A
(2) SETOR 1B
(3) SETOR 1C
(4) SETOR 2A
(5) SETOR 2B
(6) SETOR 2C
(7) SETOR 3B
(8) SETOR 3C

D-VOLMET",SBAO,"CLASSE DE  ESPA�O A�REO: \nA; Acima do FL245 (exclusive); \nA; Entre os FL145 (exclusive) e FL245 (inclusive) dentro das CTA e aerovias; \nD; Abaixo do FL145 (inclusive) dentro das CTA e aerovias; \nG; Abaixo do FL245 (inclusive) fora das CTA, aerovias",2022-12-29Z,2023-01-26Z,"5","0","0","5",0.80639893336319,126.73483451624050,1.685,-26.863
"823",1517.000000000000000,2022-12-29Z,SECTOR,SBAO_S2,SB,SECTOR 2C,SAM,STD,FL,SFC,FL,FT,H24,999.000000000000000,0.000000000000000,NO,"SETOR 2C; FIR ATL�NTICO","(1) SETOR 1A
(2) SETOR 1B
(3) SETOR 1C
(4) SETOR 2A
(5) SETOR 2B
(6) SETOR 2C
(7) SETOR 3B
(8) SETOR 3C

D-VOLMET",SBAO,"CLASSE DE  ESPA�O A�REO: \nA; Acima do FL245 (exclusive); \nA; Entre os FL145 (exclusive) e FL245 (inclusive) dentro das CTA e aerovias; \nD; Abaixo do FL145 (inclusive) dentro das CTA e aerovias; \nG; Abaixo do FL245 (inclusive) fora das CTA, aerovias",2022-12-29Z,2023-01-26Z,"6","0","0","6",0.96766265637406,126.73987321720006,1.589,-26.734
"823",1517.000000000000000,2022-12-29Z,SECTOR,SBAO_S2,SB,SECTOR 2C,SAM,STD,FL,SFC,FL,FT,H24,999.000000000000000,0.000000000000000,NO,"SETOR 2C; FIR ATL�NTICO","(1) SETOR 1A
(2) SETOR 1B
(3) SETOR 1C
(4) SETOR 2A
(5) SETOR 2B
(6) SETOR 2C
(7) SETOR 3B
(8) SETOR 3C

D-VOLMET",SBAO,"CLASSE DE  ESPA�O A�REO: \nA; Acima do FL245 (exclusive); \nA; Entre os FL145 (exclusive) e FL245 (inclusive) dentro das CTA e aerovias; \nD; Abaixo do FL145 (inclusive) dentro das CTA e aerovias; \nG; Abaixo do FL245 (inclusive) fora das CTA, aerovias",2022-12-29Z,2023-01-26Z,"7","0","0","7",1.12892168814794,126.74461433269369,1.492,-26.605
"823",1517.000000000000000,2022-12-29Z,SECTOR,SBAO_S2,SB,SECTOR 2C,SAM,STD,FL,SFC,FL,FT,H24,999.000000000000000,0.000000000000000,NO,"SETOR 2C; FIR ATL�NTICO","(1) SETOR 1A
(2) SETOR 1B
(3) SETOR 1C
(4) SETOR 2A
(5) SETOR 2B
(6) SETOR 2C
(7) SETOR 3B
(8) SETOR 3C

D-VOLMET",SBAO,"CLASSE DE  ESPA�O A�REO: \nA; Acima do FL245 (exclusive); \nA; Entre os FL145 (exclusive) e FL245 (inclusive) dentro das CTA e aerovias; \nD; Abaixo do FL145 (inclusive) dentro das CTA e aerovias; \nG; Abaixo do FL245 (inclusive) fora das CTA, aerovias",2022-12-29Z,2023-01-26Z,"8","0","0","8",1.29017630764200,126.74905853370488,1.396,-26.475
"823",1517.000000000000000,2022-12-29Z,SECTOR,SBAO_S2,SB,SECTOR 2C,SAM,STD,FL,SFC,FL,FT,H24,999.000000000000000,0.000000000000000,NO,"SETOR 2C; FIR ATL�NTICO","(1) SETOR 1A
(2) SETOR 1B
(3) SETOR 1C
(4) SETOR 2A
(5) SETOR 2B
(6) SETOR 2C
(7) SETOR 3B
(8) SETOR 3C

D-VOLMET",SBAO,"CLASSE DE  ESPA�O A�REO: \nA; Acima do FL245 (exclusive); \nA; Entre os FL145 (exclusive) e FL245 (inclusive) dentro das CTA e aerovias; \nD; Abaixo do FL145 (inclusive) dentro das CTA e aerovias; \nG; Abaixo do FL245 (inclusive) fora das CTA, aerovias",2022-12-29Z,2023-01-26Z,"9","0","0","9",1.45142682363420,126.75320541260088,1.299,-26.346
"823",1517.000000000000000,2022-12-29Z,SECTOR,SBAO_S2,SB,SECTOR 2C,SAM,STD,FL,SFC,FL,FT,H24,999.000000000000000,0.000000000000000,NO,"SETOR 2C; FIR ATL�NTICO","(1) SETOR 1A
(2) SETOR 1B
(3) SETOR 1C
(4) SETOR 2A
(5) SETOR 2B
(6) SETOR 2C
(7) SETOR 3B
(8) SETOR 3C

D-VOLMET",SBAO,"CLASSE DE  ESPA�O A�REO: \nA; Acima do FL245 (exclusive); \nA; Entre os FL145 (exclusive) e FL245 (inclusive) dentro das CTA e aerovias; \nD; Abaixo do FL145 (inclusive) dentro das CTA e aerovias; \nG; Abaixo do FL245 (inclusive) fora das CTA, aerovias",2022-12-29Z,2023-01-26Z,"10","0","0","10",1.61267350069742,126.73103552283486,1.203,-26.217
"823",1517.000000000000000,2022-12-29Z,SECTOR,SBAO_S2,SB,SECTOR 2C,SAM,STD,FL,SFC,FL,FT,H24,999.000000000000000,0.000000000000000,NO,"SETOR 2C; FIR ATL�NTICO","(1) SETOR 1A
(2) SETOR 1B
(3) SETOR 1C
(4) SETOR 2A
(5) SETOR 2B
(6) SETOR 2C
(7) SETOR 3B
(8) SETOR 3C

D-VOLMET",SBAO,"CLASSE DE  ESPA�O A�REO: \nA; Acima do FL245 (exclusive); \nA; Entre os FL145 (exclusive) e FL245 (inclusive) dentro das CTA e aerovias; \nD; Abaixo do FL145 (inclusive) dentro das CTA e aerovias; \nG; Abaixo do FL245 (inclusive) fora das CTA, aerovias",2022-12-29Z,2023-01-26Z,"11","0","0","11",1.87245830237124,126.70946405223771,1.048,-26.009
"823",1517.000000000000000,2022-12-29Z,SECTOR,SBAO_S2,SB,SECTOR 2C,SAM,STD,FL,SFC,FL,FT,H24,999.000000000000000,0.000000000000000,NO,"SETOR 2C; FIR ATL�NTICO","(1) SETOR 1A
(2) SETOR 1B
(3) SETOR 1C
(4) SETOR 2A
(5) SETOR 2B
(6) SETOR 2C
(7) SETOR 3B
(8) SETOR 3C

D-VOLMET",SBAO,"CLASSE DE  ESPA�O A�REO: \nA; Acima do FL245 (exclusive); \nA; Entre os FL145 (exclusive) e FL245 (inclusive) dentro das CTA e aerovias; \nD; Abaixo do FL145 (inclusive) dentro das CTA e aerovias; \nG; Abaixo do FL245 (inclusive) fora das CTA, aerovias",2022-12-29Z,2023-01-26Z,"12","0","0","12",2.13223509805003,126.71427276919248,0.892,-25.800
"823",1517.000000000000000,2022-12-29Z,SECTOR,SBAO_S2,SB,SECTOR 2C,SAM,STD,FL,SFC,FL,FT,H24,999.000000000000000,0.000000000000000,NO,"SETOR 2C; FIR ATL�NTICO","(1) SETOR 1A
(2) SETOR 1B
(3) SETOR 1C
(4) SETOR 2A
(5) SETOR 2B
(6) SETOR 2C
(7) SETOR 3B
(8) SETOR 3C

D-VOLMET",SBAO,"CLASSE DE  ESPA�O A�REO: \nA; Acima do FL245 (exclusive); \nA; Entre os FL145 (exclusive) e FL245 (inclusive) dentro das CTA e aerovias; \nD; Abaixo do FL145 (inclusive) dentro das CTA e aerovias; \nG; Abaixo do FL245 (inclusive) fora das CTA, aerovias",2022-12-29Z,2023-01-26Z,"13","0","0","13",2.39200505125132,126.71831201009356,0.737,-25.592
"823",1517.000000000000000,2022-12-29Z,SECTOR,SBAO_S2,SB,SECTOR 2C,SAM,STD,FL,SFC,FL,FT,H24,999.000000000000000,0.000000000000000,NO,"SETOR 2C; FIR ATL�NTICO","(1) SETOR 1A
(2) SETOR 1B
(3) SETOR 1C
(4) SETOR 2A
(5) SETOR 2B
(6) SETOR 2C
(7) SETOR 3B
(8) SETOR 3C

D-VOLMET",SBAO,"CLASSE DE  ESPA�O A�REO: \nA; Acima do FL245 (exclusive); \nA; Entre os FL145 (exclusive) e FL245 (inclusive) dentro das CTA e aerovias; \nD; Abaixo do FL145 (inclusive) dentro das CTA e aerovias; \nG; Abaixo do FL245 (inclusive) fora das CTA, aerovias",2022-12-29Z,2023-01-26Z,"14","0","0","14",2.65176936857002,126.72158277298971,0.582,-25.384
"823",1517.000000000000000,2022-12-29Z,SECTOR,SBAO_S2,SB,SECTOR 2C,SAM,STD,FL,SFC,FL,FT,H24,999.000000000000000,0.000000000000000,NO,"SETOR 2C; FIR ATL�NTICO","(1) SETOR 1A
(2) SETOR 1B
(3) SETOR 1C
(4) SETOR 2A
(5) SETOR 2B
(6) SETOR 2C
(7) SETOR 3B
(8) SETOR 3C

D-VOLMET",SBAO,"CLASSE DE  ESPA�O A�REO: \nA; Acima do FL245 (exclusive); \nA; Entre os FL145 (exclusive) e FL245 (inclusive) dentro das CTA e aerovias; \nD; Abaixo do FL145 (inclusive) dentro das CTA e aerovias; \nG; Abaixo do FL245 (inclusive) fora das CTA, aerovias",2022-12-29Z,2023-01-26Z,"15","0","0","15",2.91152923201900,126.72408165653124,0.426,-25.176
"823",1517.000000000000000,2022-12-29Z,SECTOR,SBAO_S2,SB,SECTOR 2C,SAM,STD,FL,SFC,FL,FT,H24,999.000000000000000,0.000000000000000,NO,"SETOR 2C; FIR ATL�NTICO","(1) SETOR 1A
(2) SETOR 1B
(3) SETOR 1C
(4) SETOR 2A
(5) SETOR 2B
(6) SETOR 2C
(7) SETOR 3B
(8) SETOR 3C

D-VOLMET",SBAO,"CLASSE DE  ESPA�O A�REO: \nA; Acima do FL245 (exclusive); \nA; Entre os FL145 (exclusive) e FL245 (inclusive) dentro das CTA e aerovias; \nD; Abaixo do FL145 (inclusive) dentro das CTA e aerovias; \nG; Abaixo do FL245 (inclusive) fora das CTA, aerovias",2022-12-29Z,2023-01-26Z,"16","0","0","16",3.17128583707733,126.72581036002910,0.271,-24.968
"823",1517.000000000000000,2022-12-29Z,SECTOR,SBAO_S2,SB,SECTOR 2C,SAM,STD,FL,SFC,FL,FT,H24,999.000000000000000,0.000000000000000,NO,"SETOR 2C; FIR ATL�NTICO","(1) SETOR 1A
(2) SETOR 1B
(3) SETOR 1C
(4) SETOR 2A
(5) SETOR 2B
(6) SETOR 2C
(7) SETOR 3B
(8) SETOR 3C

D-VOLMET",SBAO,"CLASSE DE  ESPA�O A�REO: \nA; Acima do FL245 (exclusive); \nA; Entre os FL145 (exclusive) e FL245 (inclusive) dentro das CTA e aerovias; \nD; Abaixo do FL145 (inclusive) dentro das CTA e aerovias; \nG; Abaixo do FL245 (inclusive) fora das CTA, aerovias",2022-12-29Z,2023-01-26Z,"17","0","0","17",3.43104037680188,126.72676993057797,0.116,-24.759
"823",1517.000000000000000,2022-12-29Z,SECTOR,SBAO_S2,SB,SECTOR 2C,SAM,STD,FL,SFC,FL,FT,H24,999.000000000000000,0.000000000000000,NO,"SETOR 2C; FIR ATL�NTICO","(1) SETOR 1A
(2) SETOR 1B
(3) SETOR 1C
(4) SETOR 2A
(5) SETOR 2B
(6) SETOR 2C
(7) SETOR 3B
(8) SETOR 3C

D-VOLMET",SBAO,"CLASSE DE  ESPA�O A�REO: \nA; Acima do FL245 (exclusive); \nA; Entre os FL145 (exclusive) e FL245 (inclusive) dentro das CTA e aerovias; \nD; Abaixo do FL145 (inclusive) dentro das CTA e aerovias; \nG; Abaixo do FL245 (inclusive) fora das CTA, aerovias",2022-12-29Z,2023-01-26Z,"18","0","0","18",3.69079401601432,126.72695902283741,-0.040,-24.551
"823",1517.000000000000000,2022-12-29Z,SECTOR,SBAO_S2,SB,SECTOR 2C,SAM,STD,FL,SFC,FL,FT,H24,999.000000000000000,0.000000000000000,NO,"SETOR 2C; FIR ATL�NTICO","(1) SETOR 1A
(2) SETOR 1B
(3) SETOR 1C
(4) SETOR 2A
(5) SETOR 2B
(6) SETOR 2C
(7) SETOR 3B
(8) SETOR 3C

D-VOLMET",SBAO,"CLASSE DE  ESPA�O A�REO: \nA; Acima do FL245 (exclusive); \nA; Entre os FL145 (exclusive) e FL245 (inclusive) dentro das CTA e aerovias; \nD; Abaixo do FL145 (inclusive) dentro das CTA e aerovias; \nG; Abaixo do FL245 (inclusive) fora das CTA, aerovias",2022-12-29Z,2023-01-26Z,"19","0","0","19",3.95054796345112,126.72637785605338,-0.195,-24.343
"823",1517.000000000000000,2022-12-29Z,SECTOR,SBAO_S2,SB,SECTOR 2C,SAM,STD,FL,SFC,FL,FT,H24,999.000000000000000,0.000000000000000,NO,"SETOR 2C; FIR ATL�NTICO","(1) SETOR 1A
(2) SETOR 1B
(3) SETOR 1C
(4) SETOR 2A
(5) SETOR 2B
(6) SETOR 2C
(7) SETOR 3B
(8) SETOR 3C

D-VOLMET",SBAO,"CLASSE DE  ESPA�O A�REO: \nA; Acima do FL245 (exclusive); \nA; Entre os FL145 (exclusive) e FL245 (inclusive) dentro das CTA e aerovias; \nD; Abaixo do FL145 (inclusive) dentro das CTA e aerovias; \nG; Abaixo do FL245 (inclusive) fora das CTA, aerovias",2022-12-29Z,2023-01-26Z,"20","0","0","20",4.21030339785972,172.08879469620643,-0.350,-24.135
"823",1517.000000000000000,2022-12-29Z,SECTOR,SBAO_S2,SB,SECTOR 2C,SAM,STD,FL,SFC,FL,FT,H24,999.000000000000000,0.000000000000000,NO,"SETOR 2C; FIR ATL�NTICO","(1) SETOR 1A
(2) SETOR 1B
(3) SETOR 1C
(4) SETOR 2A
(5) SETOR 2B
(6) SETOR 2C
(7) SETOR 3B
(8) SETOR 3C

D-VOLMET",SBAO,"CLASSE DE  ESPA�O A�REO: \nA; Acima do FL245 (exclusive); \nA; Entre os FL145 (exclusive) e FL245 (inclusive) dentro das CTA e aerovias; \nD; Abaixo do FL145 (inclusive) dentro das CTA e aerovias; \nG; Abaixo do FL245 (inclusive) fora das CTA, aerovias",2022-12-29Z,2023-01-26Z,"21","0","0","21",5.35925960131749,217.46429643053233,-1.262,-24.834
"823",1517.000000000000000,2022-12-29Z,SECTOR,SBAO_S2,SB,SECTOR 2C,SAM,STD,FL,SFC,FL,FT,H24,999.000000000000000,0.000000000000000,NO,"SETOR 2C; FIR ATL�NTICO","(1) SETOR 1A
(2) SETOR 1B
(3) SETOR 1C
(4) SETOR 2A
(5) SETOR 2B
(6) SETOR 2C
(7) SETOR 3B
(8) SETOR 3C

D-VOLMET",SBAO,"CLASSE DE  ESPA�O A�REO: \nA; Acima do FL245 (exclusive); \nA; Entre os FL145 (exclusive) e FL245 (inclusive) dentro das CTA e aerovias; \nD; Abaixo do FL145 (inclusive) dentro das CTA e aerovias; \nG; Abaixo do FL245 (inclusive) fora das CTA, aerovias",2022-12-29Z,2023-01-26Z,"22","0","0","22",6.50835690791869,217.49862006828204,-2.174,-25.533
"823",1517.000000000000000,2022-12-29Z,SECTOR,SBAO_S2,SB,SECTOR 2C,SAM,STD,FL,SFC,FL,FT,H24,999.000000000000000,0.000000000000000,NO,"SETOR 2C; FIR ATL�NTICO","(1) SETOR 1A
(2) SETOR 1B
(3) SETOR 1C
(4) SETOR 2A
(5) SETOR 2B
(6) SETOR 2C
(7) SETOR 3B
(8) SETOR 3C

D-VOLMET",SBAO,"CLASSE DE  ESPA�O A�REO: \nA; Acima do FL245 (exclusive); \nA; Entre os FL145 (exclusive) e FL245 (inclusive) dentro das CTA e aerovias; \nD; Abaixo do FL145 (inclusive) dentro das CTA e aerovias; \nG; Abaixo do FL245 (inclusive) fora das CTA, aerovias",2022-12-29Z,2023-01-26Z,"23","0","0","23",7.65769798480086,217.55120269814239,-3.086,-26.233
"823",1517.000000000000000,2022-12-29Z,SECTOR,SBAO_S2,SB,SECTOR 2C,SAM,STD,FL,SFC,FL,FT,H24,999.000000000000000,0.000000000000000,NO,"SETOR 2C; FIR ATL�NTICO","(1) SETOR 1A
(2) SETOR 1B
(3) SETOR 1C
(4) SETOR 2A
(5) SETOR 2B
(6) SETOR 2C
(7) SETOR 3B
(8) SETOR 3C

D-VOLMET",SBAO,"CLASSE DE  ESPA�O A�REO: \nA; Acima do FL245 (exclusive); \nA; Entre os FL145 (exclusive) e FL245 (inclusive) dentro das CTA e aerovias; \nD; Abaixo do FL145 (inclusive) dentro das CTA e aerovias; \nG; Abaixo do FL245 (inclusive) fora das CTA, aerovias",2022-12-29Z,2023-01-26Z,"24","0","0","24",8.80738654480878,217.62209380153070,-3.997,-26.934
"823",1517.000000000000000,2022-12-29Z,SECTOR,SBAO_S2,SB,SECTOR 2C,SAM,STD,FL,SFC,FL,FT,H24,999.000000000000000,0.000000000000000,NO,"SETOR 2C; FIR ATL�NTICO","(1) SETOR 1A
(2) SETOR 1B
(3) SETOR 1C
(4) SETOR 2A
(5) SETOR 2B
(6) SETOR 2C
(7) SETOR 3B
(8) SETOR 3C

D-VOLMET",SBAO,"CLASSE DE  ESPA�O A�REO: \nA; Acima do FL245 (exclusive); \nA; Entre os FL145 (exclusive) e FL245 (inclusive) dentro das CTA e aerovias; \nD; Abaixo do FL145 (inclusive) dentro das CTA e aerovias; \nG; Abaixo do FL245 (inclusive) fora das CTA, aerovias",2022-12-29Z,2023-01-26Z,"25","0","0","25",9.95752792378817,217.71135992865786,-4.907,-27.637
"823",1517.000000000000000,2022-12-29Z,SECTOR,SBAO_S2,SB,SECTOR 2C,SAM,STD,FL,SFC,FL,FT,H24,999.000000000000000,0.000000000000000,NO,"SETOR 2C; FIR ATL�NTICO","(1) SETOR 1A
(2) SETOR 1B
(3) SETOR 1C
(4) SETOR 2A
(5) SETOR 2B
(6) SETOR 2C
(7) SETOR 3B
(8) SETOR 3C

D-VOLMET",SBAO,"CLASSE DE  ESPA�O A�REO: \nA; Acima do FL245 (exclusive); \nA; Entre os FL145 (exclusive) e FL245 (inclusive) dentro das CTA e aerovias; \nD; Abaixo do FL145 (inclusive) dentro das CTA e aerovias; \nG; Abaixo do FL245 (inclusive) fora das CTA, aerovias",2022-12-29Z,2023-01-26Z,"26","0","0","26",11.10822943584686,217.81908379787598,-5.817,-28.341
"823",1517.000000000000000,2022-12-29Z,SECTOR,SBAO_S2,SB,SECTOR 2C,SAM,STD,FL,SFC,FL,FT,H24,999.000000000000000,0.000000000000000,NO,"SETOR 2C; FIR ATL�NTICO","(1) SETOR 1A
(2) SETOR 1B
(3) SETOR 1C
(4) SETOR 2A
(5) SETOR 2B
(6) SETOR 2C
(7) SETOR 3B
(8) SETOR 3C

D-VOLMET",SBAO,"CLASSE DE  ESPA�O A�REO: \nA; Acima do FL245 (exclusive); \nA; Entre os FL145 (exclusive) e FL245 (inclusive) dentro das CTA e aerovias; \nD; Abaixo do FL145 (inclusive) dentro das CTA e aerovias; \nG; Abaixo do FL245 (inclusive) fora das CTA, aerovias",2022-12-29Z,2023-01-26Z,"27","0","0","27",12.25960092697071,217.94536463721772,-6.726,-29.048
"823",1517.000000000000000,2022-12-29Z,SECTOR,SBAO_S2,SB,SECTOR 2C,SAM,STD,FL,SFC,FL,FT,H24,999.000000000000000,0.000000000000000,NO,"SETOR 2C; FIR ATL�NTICO","(1) SETOR 1A
(2) SETOR 1B
(3) SETOR 1C
(4) SETOR 2A
(5) SETOR 2B
(6) SETOR 2C
(7) SETOR 3B
(8) SETOR 3C

D-VOLMET",SBAO,"CLASSE DE  ESPA�O A�REO: \nA; Acima do FL245 (exclusive); \nA; Entre os FL145 (exclusive) e FL245 (inclusive) dentro das CTA e aerovias; \nD; Abaixo do FL145 (inclusive) dentro das CTA e aerovias; \nG; Abaixo do FL245 (inclusive) fora das CTA, aerovias",2022-12-29Z,2023-01-26Z,"28","0","0","28",13.41175525344338,218.09031749709342,-7.634,-29.758
"823",1517.000000000000000,2022-12-29Z,SECTOR,SBAO_S2,SB,SECTOR 2C,SAM,STD,FL,SFC,FL,FT,H24,999.000000000000000,0.000000000000000,NO,"SETOR 2C; FIR ATL�NTICO","(1) SETOR 1A
(2) SETOR 1B
(3) SETOR 1C
(4) SETOR 2A
(5) SETOR 2B
(6) SETOR 2C
(7) SETOR 3B
(8) SETOR 3C

D-VOLMET",SBAO,"CLASSE DE  ESPA�O A�REO: \nA; Acima do FL245 (exclusive); \nA; Entre os FL145 (exclusive) e FL245 (inclusive) dentro das CTA e aerovias; \nD; Abaixo do FL145 (inclusive) dentro das CTA e aerovias; \nG; Abaixo do FL245 (inclusive) fora das CTA, aerovias",2022-12-29Z,2023-01-26Z,"29","0","0","29",14.56480873264628,218.25407291066887,-8.540,-30.470
"823",1517.000000000000000,2022-12-29Z,SECTOR,SBAO_S2,SB,SECTOR 2C,SAM,STD,FL,SFC,FL,FT,H24,999.000000000000000,0.000000000000000,NO,"SETOR 2C; FIR ATL�NTICO","(1) SETOR 1A
(2) SETOR 1B
(3) SETOR 1C
(4) SETOR 2A
(5) SETOR 2B
(6) SETOR 2C
(7) SETOR 3B
(8) SETOR 3C

D-VOLMET",SBAO,"CLASSE DE  ESPA�O A�REO: \nA; Acima do FL245 (exclusive); \nA; Entre os FL145 (exclusive) e FL245 (inclusive) dentro das CTA e aerovias; \nD; Abaixo do FL145 (inclusive) dentro das CTA e aerovias; \nG; Abaixo do FL245 (inclusive) fora das CTA, aerovias",2022-12-29Z,2023-01-26Z,"30","0","0","30",15.71888172721335,257.60160418745136,-9.445,-31.186
"823",1517.000000000000000,2022-12-29Z,SECTOR,SBAO_S2,SB,SECTOR 2C,SAM,STD,FL,SFC,FL,FT,H24,999.000000000000000,0.000000000000000,NO,"SETOR 2C; FIR ATL�NTICO","(1) SETOR 1A
(2) SETOR 1B
(3) SETOR 1C
(4) SETOR 2A
(5) SETOR 2B
(6) SETOR 2C
(7) SETOR 3B
(8) SETOR 3C

D-VOLMET",SBAO,"CLASSE DE  ESPA�O A�REO: \nA; Acima do FL245 (exclusive); \nA; Entre os FL145 (exclusive) e FL245 (inclusive) dentro das CTA e aerovias; \nD; Abaixo do FL145 (inclusive) dentro das CTA e aerovias; \nG; Abaixo do FL245 (inclusive) fora das CTA, aerovias",2022-12-29Z,2023-01-26Z,"31","0","0","31",15.79496722414966,296.86923052594130,-9.411,-31.254
"823",1517.000000000000000,2022-12-29Z,SECTOR,SBAO_S2,SB,SECTOR 2C,SAM,STD,FL,SFC,FL,FT,H24,999.000000000000000,0.000000000000000,NO,"SETOR 2C; FIR ATL�NTICO","(1) SETOR 1A
(2) SETOR 1B
(3) SETOR 1C
(4) SETOR 2A
(5) SETOR 2B
(6) SETOR 2C
(7) SETOR 3B
(8) SETOR 3C

D-VOLMET",SBAO,"CLASSE DE  ESPA�O A�REO: \nA; Acima do FL245 (exclusive); \nA; Entre os FL145 (exclusive) e FL245 (inclusive) dentro das CTA e aerovias; \nD; Abaixo do FL145 (inclusive) dentro das CTA e aerovias; \nG; Abaixo do FL245 (inclusive) fora das CTA, aerovias",2022-12-29Z,2023-01-26Z,"32","0","0","32",15.87104667956323,296.88258581942927,-9.377,-31.322
"823",1517.000000000000000,2022-12-29Z,SECTOR,SBAO_S2,SB,SECTOR 2C,SAM,STD,FL,SFC,FL,FT,H24,999.000000000000000,0.000000000000000,NO,"SETOR 2C; FIR ATL�NTICO","(1) SETOR 1A
(2) SETOR 1B
(3) SETOR 1C
(4) SETOR 2A
(5) SETOR 2B
(6) SETOR 2C
(7) SETOR 3B
(8) SETOR 3C

D-VOLMET",SBAO,"CLASSE DE  ESPA�O A�REO: \nA; Acima do FL245 (exclusive); \nA; Entre os FL145 (exclusive) e FL245 (inclusive) dentro das CTA e aerovias; \nD; Abaixo do FL145 (inclusive) dentro das CTA e aerovias; \nG; Abaixo do FL245 (inclusive) fora das CTA, aerovias",2022-12-29Z,2023-01-26Z,"33","0","0","33",15.94712012850395,296.89589260613627,-9.342,-31.390
"823",1517.000000000000000,2022-12-29Z,SECTOR,SBAO_S2,SB,SECTOR 2C,SAM,STD,FL,SFC,FL,FT,H24,999.000000000000000,0.000000000000000,NO,"SETOR 2C; FIR ATL�NTICO","(1) SETOR 1A
(2) SETOR 1B
(3) SETOR 1C
(4) SETOR 2A
(5) SETOR 2B
(6) SETOR 2C
(7) SETOR 3B
(8) SETOR 3C

D-VOLMET",SBAO,"CLASSE DE  ESPA�O A�REO: \nA; Acima do FL245 (exclusive); \nA; Entre os FL145 (exclusive) e FL245 (inclusive) dentro das CTA e aerovias; \nD; Abaixo do FL145 (inclusive) dentro das CTA e aerovias; \nG; Abaixo do FL245 (inclusive) fora das CTA, aerovias",2022-12-29Z,2023-01-26Z,"34","0","0","34",16.02318758813707,296.90915426974675,-9.308,-31.458
"823",1517.000000000000000,2022-12-29Z,SECTOR,SBAO_S2,SB,SECTOR 2C,SAM,STD,FL,SFC,FL,FT,H24,999.000000000000000,0.000000000000000,NO,"SETOR 2C; FIR ATL�NTICO","(1) SETOR 1A
(2) SETOR 1B
(3) SETOR 1C
(4) SETOR 2A
(5) SETOR 2B
(6) SETOR 2C
(7) SETOR 3B
(8) SETOR 3C

D-VOLMET",SBAO,"CLASSE DE  ESPA�O A�REO: \nA; Acima do FL245 (exclusive); \nA; Entre os FL145 (exclusive) e FL245 (inclusive) dentro das CTA e aerovias; \nD; Abaixo do FL145 (inclusive) dentro das CTA e aerovias; \nG; Abaixo do FL245 (inclusive) fora das CTA, aerovias",2022-12-29Z,2023-01-26Z,"35","0","0","35",16.09924907558520,296.92236231543177,-9.273,-31.525
"823",1517.000000000000000,2022-12-29Z,SECTOR,SBAO_S2,SB,SECTOR 2C,SAM,STD,FL,SFC,FL,FT,H24,999.000000000000000,0.000000000000000,NO,"SETOR 2C; FIR ATL�NTICO","(1) SETOR 1A
(2) SETOR 1B
(3) SETOR 1C
(4) SETOR 2A
(5) SETOR 2B
(6) SETOR 2C
(7) SETOR 3B
(8) SETOR 3C

D-VOLMET",SBAO,"CLASSE DE  ESPA�O A�REO: \nA; Acima do FL245 (exclusive); \nA; Entre os FL145 (exclusive) e FL245 (inclusive) dentro das CTA e aerovias; \nD; Abaixo do FL145 (inclusive) dentro das CTA e aerovias; \nG; Abaixo do FL245 (inclusive) fora das CTA, aerovias",2022-12-29Z,2023-01-26Z,"36","0","0","36",16.17530463014666,296.93552013278912,-9.239,-31.593
"823",1517.000000000000000,2022-12-29Z,SECTOR,SBAO_S2,SB,SECTOR 2C,SAM,STD,FL,SFC,FL,FT,H24,999.000000000000000,0.000000000000000,NO,"SETOR 2C; FIR ATL�NTICO","(1) SETOR 1A
(2) SETOR 1B
(3) SETOR 1C
(4) SETOR 2A
(5) SETOR 2B
(6) SETOR 2C
(7) SETOR 3B
(8) SETOR 3C

D-VOLMET",SBAO,"CLASSE DE  ESPA�O A�REO: \nA; Acima do FL245 (exclusive); \nA; Entre os FL145 (exclusive) e FL245 (inclusive) dentro das CTA e aerovias; \nD; Abaixo do FL145 (inclusive) dentro das CTA e aerovias; \nG; Abaixo do FL245 (inclusive) fora das CTA, aerovias",2022-12-29Z,2023-01-26Z,"37","0","0","37",16.25135425101957,296.94863441242251,-9.204,-31.661
"823",1517.000000000000000,2022-12-29Z,SECTOR,SBAO_S2,SB,SECTOR 2C,SAM,STD,FL,SFC,FL,FT,H24,999.000000000000000,0.000000000000000,NO,"SETOR 2C; FIR ATL�NTICO","(1) SETOR 1A
(2) SETOR 1B
(3) SETOR 1C
(4) SETOR 2A
(5) SETOR 2B
(6) SETOR 2C
(7) SETOR 3B
(8) SETOR 3C

D-VOLMET",SBAO,"CLASSE DE  ESPA�O A�REO: \nA; Acima do FL245 (exclusive); \nA; Entre os FL145 (exclusive) e FL245 (inclusive) dentro das CTA e aerovias; \nD; Abaixo do FL145 (inclusive) dentro das CTA e aerovias; \nG; Abaixo do FL245 (inclusive) fora das CTA, aerovias",2022-12-29Z,2023-01-26Z,"38","0","0","38",16.32739798646712,296.96169836217763,-9.170,-31.729
"823",1517.000000000000000,2022-12-29Z,SECTOR,SBAO_S2,SB,SECTOR 2C,SAM,STD,FL,SFC,FL,FT,H24,999.000000000000000,0.000000000000000,NO,"SETOR 2C; FIR ATL�NTICO","(1) SETOR 1A
(2) SETOR 1B
(3) SETOR 1C
(4) SETOR 2A
(5) SETOR 2B
(6) SETOR 2C
(7) SETOR 3B
(8) SETOR 3C

D-VOLMET",SBAO,"CLASSE DE  ESPA�O A�REO: \nA; Acima do FL245 (exclusive); \nA; Entre os FL145 (exclusive) e FL245 (inclusive) dentro das CTA e aerovias; \nD; Abaixo do FL145 (inclusive) dentro das CTA e aerovias; \nG; Abaixo do FL245 (inclusive) fora das CTA, aerovias",2022-12-29Z,2023-01-26Z,"39","0","0","39",16.40343584889954,296.97471372315238,-9.135,-31.797
"823",1517.000000000000000,2022-12-29Z,SECTOR,SBAO_S2,SB,SECTOR 2C,SAM,STD,FL,SFC,FL,FT,H24,999.000000000000000,0.000000000000000,NO,"SETOR 2C; FIR ATL�NTICO","(1) SETOR 1A
(2) SETOR 1B
(3) SETOR 1C
(4) SETOR 2A
(5) SETOR 2B
(6) SETOR 2C
(7) SETOR 3B
(8) SETOR 3C

D-VOLMET",SBAO,"CLASSE DE  ESPA�O A�REO: \nA; Acima do FL245 (exclusive); \nA; Entre os FL145 (exclusive) e FL245 (inclusive) dentro das CTA e aerovias; \nD; Abaixo do FL145 (inclusive) dentro das CTA e aerovias; \nG; Abaixo do FL245 (inclusive) fora das CTA, aerovias",2022-12-29Z,2023-01-26Z,"40","0","0","40",16.47946785521607,345.96748193124415,-9.101,-31.864
"823",1517.000000000000000,2022-12-29Z,SECTOR,SBAO_S2,SB,SECTOR 2C,SAM,STD,FL,SFC,FL,FT,H24,999.000000000000000,0.000000000000000,NO,"SETOR 2C; FIR ATL�NTICO","(1) SETOR 1A
(2) SETOR 1B
(3) SETOR 1C
(4) SETOR 2A
(5) SETOR 2B
(6) SETOR 2C
(7) SETOR 3B
(8) SETOR 3C

D-VOLMET",SBAO,"CLASSE DE  ESPA�O A�REO: \nA; Acima do FL245 (exclusive); \nA; Entre os FL145 (exclusive) e FL245 (inclusive) dentro das CTA e aerovias; \nD; Abaixo do FL145 (inclusive) dentro das CTA e aerovias; \nG; Abaixo do FL245 (inclusive) fora das CTA, aerovias",2022-12-29Z,2023-01-26Z,"41","0","0","41",17.09174476543932,34.90947406437191,-8.599,-31.514
"823",1517.000000000000000,2022-12-29Z,SECTOR,SBAO_S2,SB,SECTOR 2C,SAM,STD,FL,SFC,FL,FT,H24,999.000000000000000,0.000000000000000,NO,"SETOR 2C; FIR ATL�NTICO","(1) SETOR 1A
(2) SETOR 1B
(3) SETOR 1C
(4) SETOR 2A
(5) SETOR 2B
(6) SETOR 2C
(7) SETOR 3B
(8) SETOR 3C

D-VOLMET",SBAO,"CLASSE DE  ESPA�O A�REO: \nA; Acima do FL245 (exclusive); \nA; Entre os FL145 (exclusive) e FL245 (inclusive) dentro das CTA e aerovias; \nD; Abaixo do FL145 (inclusive) dentro das CTA e aerovias; \nG; Abaixo do FL245 (inclusive) fora das CTA, aerovias",2022-12-29Z,2023-01-26Z,"42","0","0","42",17.70376600363513,34.82358519746622,-8.097,-31.164
"823",1517.000000000000000,2022-12-29Z,SECTOR,SBAO_S2,SB,SECTOR 2C,SAM,STD,FL,SFC,FL,FT,H24,999.000000000000000,0.000000000000000,NO,"SETOR 2C; FIR ATL�NTICO","(1) SETOR 1A
(2) SETOR 1B
(3) SETOR 1C
(4) SETOR 2A
(5) SETOR 2B
(6) SETOR 2C
(7) SETOR 3B
(8) SETOR 3C

D-VOLMET",SBAO,"CLASSE DE  ESPA�O A�REO: \nA; Acima do FL245 (exclusive); \nA; Entre os FL145 (exclusive) e FL245 (inclusive) dentro das CTA e aerovias; \nD; Abaixo do FL145 (inclusive) dentro das CTA e aerovias; \nG; Abaixo do FL245 (inclusive) fora das CTA, aerovias",2022-12-29Z,2023-01-26Z,"43","0","0","43",18.31554841020905,34.74302458150860,-7.595,-30.815
"823",1517.000000000000000,2022-12-29Z,SECTOR,SBAO_S2,SB,SECTOR 2C,SAM,STD,FL,SFC,FL,FT,H24,999.000000000000000,0.000000000000000,NO,"SETOR 2C; FIR ATL�NTICO","(1) SETOR 1A
(2) SETOR 1B
(3) SETOR 1C
(4) SETOR 2A
(5) SETOR 2B
(6) SETOR 2C
(7) SETOR 3B
(8) SETOR 3C

D-VOLMET",SBAO,"CLASSE DE  ESPA�O A�REO: \nA; Acima do FL245 (exclusive); \nA; Entre os FL145 (exclusive) e FL245 (inclusive) dentro das CTA e aerovias; \nD; Abaixo do FL145 (inclusive) dentro das CTA e aerovias; \nG; Abaixo do FL245 (inclusive) fora das CTA, aerovias",2022-12-29Z,2023-01-26Z,"44","0","0","44",18.92710848470658,34.66776654964713,-7.092,-30.467
"823",1517.000000000000000,2022-12-29Z,SECTOR,SBAO_S2,SB,SECTOR 2C,SAM,STD,FL,SFC,FL,FT,H24,999.000000000000000,0.000000000000000,NO,"SETOR 2C; FIR ATL�NTICO","(1) SETOR 1A
(2) SETOR 1B
(3) SETOR 1C
(4) SETOR 2A
(5) SETOR 2B
(6) SETOR 2C
(7) SETOR 3B
(8) SETOR 3C

D-VOLMET",SBAO,"CLASSE DE  ESPA�O A�REO: \nA; Acima do FL245 (exclusive); \nA; Entre os FL145 (exclusive) e FL245 (inclusive) dentro das CTA e aerovias; \nD; Abaixo do FL145 (inclusive) dentro das CTA e aerovias; \nG; Abaixo do FL245 (inclusive) fora das CTA, aerovias",2022-12-29Z,2023-01-26Z,"45","0","0","45",19.53846242332891,34.59778562827862,-6.589,-30.119
"823",1517.000000000000000,2022-12-29Z,SECTOR,SBAO_S2,SB,SECTOR 2C,SAM,STD,FL,SFC,FL,FT,H24,999.000000000000000,0.000000000000000,NO,"SETOR 2C; FIR ATL�NTICO","(1) SETOR 1A
(2) SETOR 1B
(3) SETOR 1C
(4) SETOR 2A
(5) SETOR 2B
(6) SETOR 2C
(7) SETOR 3B
(8) SETOR 3C

D-VOLMET",SBAO,"CLASSE DE  ESPA�O A�REO: \nA; Acima do FL245 (exclusive); \nA; Entre os FL145 (exclusive) e FL245 (inclusive) dentro das CTA e aerovias; \nD; Abaixo do FL145 (inclusive) dentro das CTA e aerovias; \nG; Abaixo do FL245 (inclusive) fora das CTA, aerovias",2022-12-29Z,2023-01-26Z,"46","0","0","46",20.14962609790199,34.53305876721206,-6.085,-29.772
"823",1517.000000000000000,2022-12-29Z,SECTOR,SBAO_S2,SB,SECTOR 2C,SAM,STD,FL,SFC,FL,FT,H24,999.000000000000000,0.000000000000000,NO,"SETOR 2C; FIR ATL�NTICO","(1) SETOR 1A
(2) SETOR 1B
(3) SETOR 1C
(4) SETOR 2A
(5) SETOR 2B
(6) SETOR 2C
(7) SETOR 3B
(8) SETOR 3C

D-VOLMET",SBAO,"CLASSE DE  ESPA�O A�REO: \nA; Acima do FL245 (exclusive); \nA; Entre os FL145 (exclusive) e FL245 (inclusive) dentro das CTA e aerovias; \nD; Abaixo do FL145 (inclusive) dentro das CTA e aerovias; \nG; Abaixo do FL245 (inclusive) fora das CTA, aerovias",2022-12-29Z,2023-01-26Z,"47","0","0","47",20.76061511276068,34.47356339237949,-5.582,-29.426
"823",1517.000000000000000,2022-12-29Z,SECTOR,SBAO_S2,SB,SECTOR 2C,SAM,STD,FL,SFC,FL,FT,H24,999.000000000000000,0.000000000000000,NO,"SETOR 2C; FIR ATL�NTICO","(1) SETOR 1A
(2) SETOR 1B
(3) SETOR 1C
(4) SETOR 2A
(5) SETOR 2B
(6) SETOR 2C
(7) SETOR 3B
(8) SETOR 3C

D-VOLMET",SBAO,"CLASSE DE  ESPA�O A�REO: \nA; Acima do FL245 (exclusive); \nA; Entre os FL145 (exclusive) e FL245 (inclusive) dentro das CTA e aerovias; \nD; Abaixo do FL145 (inclusive) dentro das CTA e aerovias; \nG; Abaixo do FL245 (inclusive) fora das CTA, aerovias",2022-12-29Z,2023-01-26Z,"48","0","0","48",21.37144482665627,34.41927942668043,-5.078,-29.081
"823",1517.000000000000000,2022-12-29Z,SECTOR,SBAO_S2,SB,SECTOR 2C,SAM,STD,FL,SFC,FL,FT,H24,999.000000000000000,0.000000000000000,NO,"SETOR 2C; FIR ATL�NTICO","(1) SETOR 1A
(2) SETOR 1B
(3) SETOR 1C
(4) SETOR 2A
(5) SETOR 2B
(6) SETOR 2C
(7) SETOR 3B
(8) SETOR 3C

D-VOLMET",SBAO,"CLASSE DE  ESPA�O A�REO: \nA; Acima do FL245 (exclusive); \nA; Entre os FL145 (exclusive) e FL245 (inclusive) dentro das CTA e aerovias; \nD; Abaixo do FL145 (inclusive) dentro das CTA e aerovias; \nG; Abaixo do FL245 (inclusive) fora das CTA, aerovias",2022-12-29Z,2023-01-26Z,"49","0","0","49",21.98213036503060,34.37018931829764,-4.574,-28.736
"823",1517.000000000000000,2022-12-29Z,SECTOR,SBAO_S2,SB,SECTOR 2C,SAM,STD,FL,SFC,FL,FT,H24,999.000000000000000,0.000000000000000,NO,"SETOR 2C; FIR ATL�NTICO","(1) SETOR 1A
(2) SETOR 1B
(3) SETOR 1C
(4) SETOR 2A
(5) SETOR 2B
(6) SETOR 2C
(7) SETOR 3B
(8) SETOR 3C

D-VOLMET",SBAO,"CLASSE DE  ESPA�O A�REO: \nA; Acima do FL245 (exclusive); \nA; Entre os FL145 (exclusive) e FL245 (inclusive) dentro das CTA e aerovias; \nD; Abaixo do FL145 (inclusive) dentro das CTA e aerovias; \nG; Abaixo do FL245 (inclusive) fora das CTA, aerovias",2022-12-29Z,2023-01-26Z,"50","0","0","50",22.59268664125263,346.10689124949891,-4.070,-28.391
"823",1517.000000000000000,2022-12-29Z,SECTOR,SBAO_S2,SB,SECTOR 2C,SAM,STD,FL,SFC,FL,FT,H24,999.000000000000000,0.000000000000000,NO,"SETOR 2C; FIR ATL�NTICO","(1) SETOR 1A
(2) SETOR 1B
(3) SETOR 1C
(4) SETOR 2A
(5) SETOR 2B
(6) SETOR 2C
(7) SETOR 3B
(8) SETOR 3C

D-VOLMET",SBAO,"CLASSE DE  ESPA�O A�REO: \nA; Acima do FL245 (exclusive); \nA; Entre os FL145 (exclusive) e FL245 (inclusive) dentro das CTA e aerovias; \nD; Abaixo do FL145 (inclusive) dentro das CTA e aerovias; \nG; Abaixo do FL245 (inclusive) fora das CTA, aerovias",2022-12-29Z,2023-01-26Z,"51","0","0","51",22.68909020749106,297.87050695154716,-4.025,-28.477
"823",1517.000000000000000,2022-12-29Z,SECTOR,SBAO_S2,SB,SECTOR 2C,SAM,STD,FL,SFC,FL,FT,H24,999.000000000000000,0.000000000000000,NO,"SETOR 2C; FIR ATL�NTICO","(1) SETOR 1A
(2) SETOR 1B
(3) SETOR 1C
(4) SETOR 2A
(5) SETOR 2B
(6) SETOR 2C
(7) SETOR 3B
(8) SETOR 3C

D-VOLMET",SBAO,"CLASSE DE  ESPA�O A�REO: \nA; Acima do FL245 (exclusive); \nA; Entre os FL145 (exclusive) e FL245 (inclusive) dentro das CTA e aerovias; \nD; Abaixo do FL145 (inclusive) dentro das CTA e aerovias; \nG; Abaixo do FL245 (inclusive) fora das CTA, aerovias",2022-12-29Z,2023-01-26Z,"52","0","0","52",22.78548968434838,297.87779123146129,-3.980,-28.562
"823",1517.000000000000000,2022-12-29Z,SECTOR,SBAO_S2,SB,SECTOR 2C,SAM,STD,FL,SFC,FL,FT,H24,999.000000000000000,0.000000000000000,NO,"SETOR 2C; FIR ATL�NTICO","(1) SETOR 1A
(2) SETOR 1B
(3) SETOR 1C
(4) SETOR 2A
(5) SETOR 2B
(6) SETOR 2C
(7) SETOR 3B
(8) SETOR 3C

D-VOLMET",SBAO,"CLASSE DE  ESPA�O A�REO: \nA; Acima do FL245 (exclusive); \nA; Entre os FL145 (exclusive) e FL245 (inclusive) dentro das CTA e aerovias; \nD; Abaixo do FL145 (inclusive) dentro das CTA e aerovias; \nG; Abaixo do FL245 (inclusive) fora das CTA, aerovias",2022-12-29Z,2023-01-26Z,"53","0","0","53",22.88188512803151,297.88499038091447,-3.935,-28.647
"823",1517.000000000000000,2022-12-29Z,SECTOR,SBAO_S2,SB,SECTOR 2C,SAM,STD,FL,SFC,FL,FT,H24,999.000000000000000,0.000000000000000,NO,"SETOR 2C; FIR ATL�NTICO","(1) SETOR 1A
(2) SETOR 1B
(3) SETOR 1C
(4) SETOR 2A
(5) SETOR 2B
(6) SETOR 2C
(7) SETOR 3B
(8) SETOR 3C

D-VOLMET",SBAO,"CLASSE DE  ESPA�O A�REO: \nA; Acima do FL245 (exclusive); \nA; Entre os FL145 (exclusive) e FL245 (inclusive) dentro das CTA e aerovias; \nD; Abaixo do FL145 (inclusive) dentro das CTA e aerovias; \nG; Abaixo do FL245 (inclusive) fora das CTA, aerovias",2022-12-29Z,2023-01-26Z,"54","0","0","54",22.97827658168979,297.89210978547692,-3.890,-28.732
"823",1517.000000000000000,2022-12-29Z,SECTOR,SBAO_S2,SB,SECTOR 2C,SAM,STD,FL,SFC,FL,FT,H24,999.000000000000000,0.000000000000000,NO,"SETOR 2C; FIR ATL�NTICO","(1) SETOR 1A
(2) SETOR 1B
(3) SETOR 1C
(4) SETOR 2A
(5) SETOR 2B
(6) SETOR 2C
(7) SETOR 3B
(8) SETOR 3C

D-VOLMET",SBAO,"CLASSE DE  ESPA�O A�REO: \nA; Acima do FL245 (exclusive); \nA; Entre os FL145 (exclusive) e FL245 (inclusive) dentro das CTA e aerovias; \nD; Abaixo do FL145 (inclusive) dentro das CTA e aerovias; \nG; Abaixo do FL245 (inclusive) fora das CTA, aerovias",2022-12-29Z,2023-01-26Z,"55","0","0","55",23.07466408842208,297.89914540818654,-3.845,-28.817
"823",1517.000000000000000,2022-12-29Z,SECTOR,SBAO_S2,SB,SECTOR 2C,SAM,STD,FL,SFC,FL,FT,H24,999.000000000000000,0.000000000000000,NO,"SETOR 2C; FIR ATL�NTICO","(1) SETOR 1A
(2) SETOR 1B
(3) SETOR 1C
(4) SETOR 2A
(5) SETOR 2B
(6) SETOR 2C
(7) SETOR 3B
(8) SETOR 3C

D-VOLMET",SBAO,"CLASSE DE  ESPA�O A�REO: \nA; Acima do FL245 (exclusive); \nA; Entre os FL145 (exclusive) e FL245 (inclusive) dentro das CTA e aerovias; \nD; Abaixo do FL145 (inclusive) dentro das CTA e aerovias; \nG; Abaixo do FL245 (inclusive) fora das CTA, aerovias",2022-12-29Z,2023-01-26Z,"56","0","0","56",23.17104769543504,297.90609846470960,-3.800,-28.903
"823",1517.000000000000000,2022-12-29Z,SECTOR,SBAO_S2,SB,SECTOR 2C,SAM,STD,FL,SFC,FL,FT,H24,999.000000000000000,0.000000000000000,NO,"SETOR 2C; FIR ATL�NTICO","(1) SETOR 1A
(2) SETOR 1B
(3) SETOR 1C
(4) SETOR 2A
(5) SETOR 2B
(6) SETOR 2C
(7) SETOR 3B
(8) SETOR 3C

D-VOLMET",SBAO,"CLASSE DE  ESPA�O A�REO: \nA; Acima do FL245 (exclusive); \nA; Entre os FL145 (exclusive) e FL245 (inclusive) dentro das CTA e aerovias; \nD; Abaixo do FL145 (inclusive) dentro das CTA e aerovias; \nG; Abaixo do FL245 (inclusive) fora das CTA, aerovias",2022-12-29Z,2023-01-26Z,"57","0","0","57",23.26742745924264,297.91297573575156,-3.755,-28.988
"823",1517.000000000000000,2022-12-29Z,SECTOR,SBAO_S2,SB,SECTOR 2C,SAM,STD,FL,SFC,FL,FT,H24,999.000000000000000,0.000000000000000,NO,"SETOR 2C; FIR ATL�NTICO","(1) SETOR 1A
(2) SETOR 1B
(3) SETOR 1C
(4) SETOR 2A
(5) SETOR 2B
(6) SETOR 2C
(7) SETOR 3B
(8) SETOR 3C

D-VOLMET",SBAO,"CLASSE DE  ESPA�O A�REO: \nA; Acima do FL245 (exclusive); \nA; Entre os FL145 (exclusive) e FL245 (inclusive) dentro das CTA e aerovias; \nD; Abaixo do FL145 (inclusive) dentro das CTA e aerovias; \nG; Abaixo do FL245 (inclusive) fora das CTA, aerovias",2022-12-29Z,2023-01-26Z,"58","0","0","58",23.36380340512079,297.91976916527068,-3.709,-29.073
"823",1517.000000000000000,2022-12-29Z,SECTOR,SBAO_S2,SB,SECTOR 2C,SAM,STD,FL,SFC,FL,FT,H24,999.000000000000000,0.000000000000000,NO,"SETOR 2C; FIR ATL�NTICO","(1) SETOR 1A
(2) SETOR 1B
(3) SETOR 1C
(4) SETOR 2A
(5) SETOR 2B
(6) SETOR 2C
(7) SETOR 3B
(8) SETOR 3C

D-VOLMET",SBAO,"CLASSE DE  ESPA�O A�REO: \nA; Acima do FL245 (exclusive); \nA; Entre os FL145 (exclusive) e FL245 (inclusive) dentro das CTA e aerovias; \nD; Abaixo do FL145 (inclusive) dentro das CTA e aerovias; \nG; Abaixo do FL245 (inclusive) fora das CTA, aerovias",2022-12-29Z,2023-01-26Z,"59","0","0","59",23.46017559779646,297.92647332444875,-3.664,-29.158
"823",1517.000000000000000,2022-12-29Z,SECTOR,SBAO_S2,SB,SECTOR 2C,SAM,STD,FL,SFC,FL,FT,H24,999.000000000000000,0.000000000000000,NO,"SETOR 2C; FIR ATL�NTICO","(1) SETOR 1A
(2) SETOR 1B
(3) SETOR 1C
(4) SETOR 2A
(5) SETOR 2B
(6) SETOR 2C
(7) SETOR 3B
(8) SETOR 3C

D-VOLMET",SBAO,"CLASSE DE  ESPA�O A�REO: \nA; Acima do FL245 (exclusive); \nA; Entre os FL145 (exclusive) e FL245 (inclusive) dentro das CTA e aerovias; \nD; Abaixo do FL145 (inclusive) dentro das CTA e aerovias; \nG; Abaixo do FL245 (inclusive) fora das CTA, aerovias",2022-12-29Z,2023-01-26Z,"60","0","0","60",23.55654407543527,287.28629020472698,-3.619,-29.243
"823",1517.000000000000000,2022-12-29Z,SECTOR,SBAO_S2,SB,SECTOR 2C,SAM,STD,FL,SFC,FL,FT,H24,999.000000000000000,0.000000000000000,NO,"SETOR 2C; FIR ATL�NTICO","(1) SETOR 1A
(2) SETOR 1B
(3) SETOR 1C
(4) SETOR 2A
(5) SETOR 2B
(6) SETOR 2C
(7) SETOR 3B
(8) SETOR 3C

D-VOLMET",SBAO,"CLASSE DE  ESPA�O A�REO: \nA; Acima do FL245 (exclusive); \nA; Entre os FL145 (exclusive) e FL245 (inclusive) dentro das CTA e aerovias; \nD; Abaixo do FL145 (inclusive) dentro das CTA e aerovias; \nG; Abaixo do FL245 (inclusive) fora das CTA, aerovias",2022-12-29Z,2023-01-26Z,"61","0","0","61",23.75454274421840,276.64905751327080,-3.596,-29.440
"823",1517.000000000000000,2022-12-29Z,SECTOR,SBAO_S2,SB,SECTOR 2C,SAM,STD,FL,SFC,FL,FT,H24,999.000000000000000,0.000000000000000,NO,"SETOR 2C; FIR ATL�NTICO","(1) SETOR 1A
(2) SETOR 1B
(3) SETOR 1C
(4) SETOR 2A
(5) SETOR 2B
(6) SETOR 2C
(7) SETOR 3B
(8) SETOR 3C

D-VOLMET",SBAO,"CLASSE DE  ESPA�O A�REO: \nA; Acima do FL245 (exclusive); \nA; Entre os FL145 (exclusive) e FL245 (inclusive) dentro das CTA e aerovias; \nD; Abaixo do FL145 (inclusive) dentro das CTA e aerovias; \nG; Abaixo do FL245 (inclusive) fora das CTA, aerovias",2022-12-29Z,2023-01-26Z,"62","0","0","62",23.95253657704052,276.66157776527177,-3.573,-29.636
"823",1517.000000000000000,2022-12-29Z,SECTOR,SBAO_S2,SB,SECTOR 2C,SAM,STD,FL,SFC,FL,FT,H24,999.000000000000000,0.000000000000000,NO,"SETOR 2C; FIR ATL�NTICO","(1) SETOR 1A
(2) SETOR 1B
(3) SETOR 1C
(4) SETOR 2A
(5) SETOR 2B
(6) SETOR 2C
(7) SETOR 3B
(8) SETOR 3C

D-VOLMET",SBAO,"CLASSE DE  ESPA�O A�REO: \nA; Acima do FL245 (exclusive); \nA; Entre os FL145 (exclusive) e FL245 (inclusive) dentro das CTA e aerovias; \nD; Abaixo do FL145 (inclusive) dentro das CTA e aerovias; \nG; Abaixo do FL245 (inclusive) fora das CTA, aerovias",2022-12-29Z,2023-01-26Z,"63","0","0","63",24.15052559940917,276.67401790147875,-3.550,-29.833
"823",1517.000000000000000,2022-12-29Z,SECTOR,SBAO_S2,SB,SECTOR 2C,SAM,STD,FL,SFC,FL,FT,H24,999.000000000000000,0.000000000000000,NO,"SETOR 2C; FIR ATL�NTICO","(1) SETOR 1A
(2) SETOR 1B
(3) SETOR 1C
(4) SETOR 2A
(5) SETOR 2B
(6) SETOR 2C
(7) SETOR 3B
(8) SETOR 3C

D-VOLMET",SBAO,"CLASSE DE  ESPA�O A�REO: \nA; Acima do FL245 (exclusive); \nA; Entre os FL145 (exclusive) e FL245 (inclusive) dentro das CTA e aerovias; \nD; Abaixo do FL145 (inclusive) dentro das CTA e aerovias; \nG; Abaixo do FL245 (inclusive) fora das CTA, aerovias",2022-12-29Z,2023-01-26Z,"64","0","0","64",24.34850984013043,276.68637951734877,-3.527,-30.030
"823",1517.000000000000000,2022-12-29Z,SECTOR,SBAO_S2,SB,SECTOR 2C,SAM,STD,FL,SFC,FL,FT,H24,999.000000000000000,0.000000000000000,NO,"SETOR 2C; FIR ATL�NTICO","(1) SETOR 1A
(2) SETOR 1B
(3) SETOR 1C
(4) SETOR 2A
(5) SETOR 2B
(6) SETOR 2C
(7) SETOR 3B
(8) SETOR 3C

D-VOLMET",SBAO,"CLASSE DE  ESPA�O A�REO: \nA; Acima do FL245 (exclusive); \nA; Entre os FL145 (exclusive) e FL245 (inclusive) dentro das CTA e aerovias; \nD; Abaixo do FL145 (inclusive) dentro das CTA e aerovias; \nG; Abaixo do FL245 (inclusive) fora das CTA, aerovias",2022-12-29Z,2023-01-26Z,"65","0","0","65",24.54648931557691,276.69865972894246,-3.504,-30.226
"823",1517.000000000000000,2022-12-29Z,SECTOR,SBAO_S2,SB,SECTOR 2C,SAM,STD,FL,SFC,FL,FT,H24,999.000000000000000,0.000000000000000,NO,"SETOR 2C; FIR ATL�NTICO","(1) SETOR 1A
(2) SETOR 1B
(3) SETOR 1C
(4) SETOR 2A
(5) SETOR 2B
(6) SETOR 2C
(7) SETOR 3B
(8) SETOR 3C

D-VOLMET",SBAO,"CLASSE DE  ESPA�O A�REO: \nA; Acima do FL245 (exclusive); \nA; Entre os FL145 (exclusive) e FL245 (inclusive) dentro das CTA e aerovias; \nD; Abaixo do FL145 (inclusive) dentro das CTA e aerovias; \nG; Abaixo do FL245 (inclusive) fora das CTA, aerovias",2022-12-29Z,2023-01-26Z,"66","0","0","66",24.74446405187107,276.71085979522945,-3.481,-30.423
"823",1517.000000000000000,2022-12-29Z,SECTOR,SBAO_S2,SB,SECTOR 2C,SAM,STD,FL,SFC,FL,FT,H24,999.000000000000000,0.000000000000000,NO,"SETOR 2C; FIR ATL�NTICO","(1) SETOR 1A
(2) SETOR 1B
(3) SETOR 1C
(4) SETOR 2A
(5) SETOR 2B
(6) SETOR 2C
(7) SETOR 3B
(8) SETOR 3C

D-VOLMET",SBAO,"CLASSE DE  ESPA�O A�REO: \nA; Acima do FL245 (exclusive); \nA; Entre os FL145 (exclusive) e FL245 (inclusive) dentro das CTA e aerovias; \nD; Abaixo do FL145 (inclusive) dentro das CTA e aerovias; \nG; Abaixo do FL245 (inclusive) fora das CTA, aerovias",2022-12-29Z,2023-01-26Z,"67","0","0","67",24.94243407612370,276.72298148239702,-3.458,-30.620
"823",1517.000000000000000,2022-12-29Z,SECTOR,SBAO_S2,SB,SECTOR 2C,SAM,STD,FL,SFC,FL,FT,H24,999.000000000000000,0.000000000000000,NO,"SETOR 2C; FIR ATL�NTICO","(1) SETOR 1A
(2) SETOR 1B
(3) SETOR 1C
(4) SETOR 2A
(5) SETOR 2B
(6) SETOR 2C
(7) SETOR 3B
(8) SETOR 3C

D-VOLMET",SBAO,"CLASSE DE  ESPA�O A�REO: \nA; Acima do FL245 (exclusive); \nA; Entre os FL145 (exclusive) e FL245 (inclusive) dentro das CTA e aerovias; \nD; Abaixo do FL145 (inclusive) dentro das CTA e aerovias; \nG; Abaixo do FL245 (inclusive) fora das CTA, aerovias",2022-12-29Z,2023-01-26Z,"68","0","0","68",25.14039939540955,276.73502156762351,-3.435,-30.816
"823",1517.000000000000000,2022-12-29Z,SECTOR,SBAO_S2,SB,SECTOR 2C,SAM,STD,FL,SFC,FL,FT,H24,999.000000000000000,0.000000000000000,NO,"SETOR 2C; FIR ATL�NTICO","(1) SETOR 1A
(2) SETOR 1B
(3) SETOR 1C
(4) SETOR 2A
(5) SETOR 2B
(6) SETOR 2C
(7) SETOR 3B
(8) SETOR 3C

D-VOLMET",SBAO,"CLASSE DE  ESPA�O A�REO: \nA; Acima do FL245 (exclusive); \nA; Entre os FL145 (exclusive) e FL245 (inclusive) dentro das CTA e aerovias; \nD; Abaixo do FL145 (inclusive) dentro das CTA e aerovias; \nG; Abaixo do FL245 (inclusive) fora das CTA, aerovias",2022-12-29Z,2023-01-26Z,"69","0","0","69",25.33836005400796,276.74697843488468,-3.412,-31.013
"823",1517.000000000000000,2022-12-29Z,SECTOR,SBAO_S2,SB,SECTOR 2C,SAM,STD,FL,SFC,FL,FT,H24,999.000000000000000,0.000000000000000,NO,"SETOR 2C; FIR ATL�NTICO","(1) SETOR 1A
(2) SETOR 1B
(3) SETOR 1C
(4) SETOR 2A
(5) SETOR 2B
(6) SETOR 2C
(7) SETOR 3B
(8) SETOR 3C

D-VOLMET",SBAO,"CLASSE DE  ESPA�O A�REO: \nA; Acima do FL245 (exclusive); \nA; Entre os FL145 (exclusive) e FL245 (inclusive) dentro das CTA e aerovias; \nD; Abaixo do FL145 (inclusive) dentro das CTA e aerovias; \nG; Abaixo do FL245 (inclusive) fora das CTA, aerovias",2022-12-29Z,2023-01-26Z,"70","0","0","70",25.53628368864325,248.51799124295960,-3.388,-31.209
"823",1517.000000000000000,2022-12-29Z,SECTOR,SBAO_S2,SB,SECTOR 2C,SAM,STD,FL,SFC,FL,FT,H24,999.000000000000000,0.000000000000000,NO,"SETOR 2C; FIR ATL�NTICO","(1) SETOR 1A
(2) SETOR 1B
(3) SETOR 1C
(4) SETOR 2A
(5) SETOR 2B
(6) SETOR 2C
(7) SETOR 3B
(8) SETOR 3C

D-VOLMET",SBAO,"CLASSE DE  ESPA�O A�REO: \nA; Acima do FL245 (exclusive); \nA; Entre os FL145 (exclusive) e FL245 (inclusive) dentro das CTA e aerovias; \nD; Abaixo do FL145 (inclusive) dentro das CTA e aerovias; \nG; Abaixo do FL245 (inclusive) fora das CTA, aerovias",2022-12-29Z,2023-01-26Z,"71","0","0","71",25.53628401981502,248.77267913749338,-3.388,-31.209
"823",1517.000000000000000,2022-12-29Z,SECTOR,SBAO_S2,SB,SECTOR 2C,SAM,STD,FL,SFC,FL,FT,H24,999.000000000000000,0.000000000000000,NO,"SETOR 2C; FIR ATL�NTICO","(1) SETOR 1A
(2) SETOR 1B
(3) SETOR 1C
(4) SETOR 2A
(5) SETOR 2B
(6) SETOR 2C
(7) SETOR 3B
(8) SETOR 3C

D-VOLMET",SBAO,"CLASSE DE  ESPA�O A�REO: \nA; Acima do FL245 (exclusive); \nA; Entre os FL145 (exclusive) e FL245 (inclusive) dentro das CTA e aerovias; \nD; Abaixo do FL145 (inclusive) dentro das CTA e aerovias; \nG; Abaixo do FL245 (inclusive) fora das CTA, aerovias",2022-12-29Z,2023-01-26Z,"72","0","0","72",25.53631507247451,277.00762445079931,-3.388,-31.209
"823",1517.000000000000000,2022-12-29Z,SECTOR,SBAO_S2,SB,SECTOR 2C,SAM,STD,FL,SFC,FL,FT,H24,999.000000000000000,0.000000000000000,NO,"SETOR 2C; FIR ATL�NTICO","(1) SETOR 1A
(2) SETOR 1B
(3) SETOR 1C
(4) SETOR 2A
(5) SETOR 2B
(6) SETOR 2C
(7) SETOR 3B
(8) SETOR 3C

D-VOLMET",SBAO,"CLASSE DE  ESPA�O A�REO: \nA; Acima do FL245 (exclusive); \nA; Entre os FL145 (exclusive) e FL245 (inclusive) dentro das CTA e aerovias; \nD; Abaixo do FL145 (inclusive) dentro das CTA e aerovias; \nG; Abaixo do FL245 (inclusive) fora das CTA, aerovias",2022-12-29Z,2023-01-26Z,"73","0","0","73",25.53631621686471,338.51839999696773,-3.388,-31.209
"823",1517.000000000000000,2022-12-29Z,SECTOR,SBAO_S2,SB,SECTOR 2C,SAM,STD,FL,SFC,FL,FT,H24,999.000000000000000,0.000000000000000,NO,"SETOR 2C; FIR ATL�NTICO","(1) SETOR 1A
(2) SETOR 1B
(3) SETOR 1C
(4) SETOR 2A
(5) SETOR 2B
(6) SETOR 2C
(7) SETOR 3B
(8) SETOR 3C

D-VOLMET",SBAO,"CLASSE DE  ESPA�O A�REO: \nA; Acima do FL245 (exclusive); \nA; Entre os FL145 (exclusive) e FL245 (inclusive) dentro das CTA e aerovias; \nD; Abaixo do FL145 (inclusive) dentro das CTA e aerovias; \nG; Abaixo do FL245 (inclusive) fora das CTA, aerovias",2022-12-29Z,2023-01-26Z,"74","0","0","74",25.53631622899856,338.77308788474966,-3.388,-31.209
"823",1517.000000000000000,2022-12-29Z,SECTOR,SBAO_S2,SB,SECTOR 2C,SAM,STD,FL,SFC,FL,FT,H24,999.000000000000000,0.000000000000000,NO,"SETOR 2C; FIR ATL�NTICO","(1) SETOR 1A
(2) SETOR 1B
(3) SETOR 1C
(4) SETOR 2A
(5) SETOR 2B
(6) SETOR 2C
(7) SETOR 3B
(8) SETOR 3C

D-VOLMET",SBAO,"CLASSE DE  ESPA�O A�REO: \nA; Acima do FL245 (exclusive); \nA; Entre os FL145 (exclusive) e FL245 (inclusive) dentro das CTA e aerovias; \nD; Abaixo do FL145 (inclusive) dentro das CTA e aerovias; \nG; Abaixo do FL245 (inclusive) fora das CTA, aerovias",2022-12-29Z,2023-01-26Z,"75","0","0","75",25.62820298002399,277.26505358755236,-3.377,-31.301
"823",1517.000000000000000,2022-12-29Z,SECTOR,SBAO_S2,SB,SECTOR 2C,SAM,STD,FL,SFC,FL,FT,H24,999.000000000000000,0.000000000000000,NO,"SETOR 2C; FIR ATL�NTICO","(1) SETOR 1A
(2) SETOR 1B
(3) SETOR 1C
(4) SETOR 2A
(5) SETOR 2B
(6) SETOR 2C
(7) SETOR 3B
(8) SETOR 3C

D-VOLMET",SBAO,"CLASSE DE  ESPA�O A�REO: \nA; Acima do FL245 (exclusive); \nA; Entre os FL145 (exclusive) e FL245 (inclusive) dentro das CTA e aerovias; \nD; Abaixo do FL145 (inclusive) dentro das CTA e aerovias; \nG; Abaixo do FL245 (inclusive) fora das CTA, aerovias",2022-12-29Z,2023-01-26Z,"76","0","0","76",25.72012085515071,277.27052687361652,-3.365,-31.392
"823",1517.000000000000000,2022-12-29Z,SECTOR,SBAO_S2,SB,SECTOR 2C,SAM,STD,FL,SFC,FL,FT,H24,999.000000000000000,0.000000000000000,NO,"SETOR 2C; FIR ATL�NTICO","(1) SETOR 1A
(2) SETOR 1B
(3) SETOR 1C
(4) SETOR 2A
(5) SETOR 2B
(6) SETOR 2C
(7) SETOR 3B
(8) SETOR 3C

D-VOLMET",SBAO,"CLASSE DE  ESPA�O A�REO: \nA; Acima do FL245 (exclusive); \nA; Entre os FL145 (exclusive) e FL245 (inclusive) dentro das CTA e aerovias; \nD; Abaixo do FL145 (inclusive) dentro das CTA e aerovias; \nG; Abaixo do FL245 (inclusive) fora das CTA, aerovias",2022-12-29Z,2023-01-26Z,"77","0","0","77",25.81203766103025,277.27598403883036,-3.353,-31.483
"823",1517.000000000000000,2022-12-29Z,SECTOR,SBAO_S2,SB,SECTOR 2C,SAM,STD,FL,SFC,FL,FT,H24,999.000000000000000,0.000000000000000,NO,"SETOR 2C; FIR ATL�NTICO","(1) SETOR 1A
(2) SETOR 1B
(3) SETOR 1C
(4) SETOR 2A
(5) SETOR 2B
(6) SETOR 2C
(7) SETOR 3B
(8) SETOR 3C

D-VOLMET",SBAO,"CLASSE DE  ESPA�O A�REO: \nA; Acima do FL245 (exclusive); \nA; Entre os FL145 (exclusive) e FL245 (inclusive) dentro das CTA e aerovias; \nD; Abaixo do FL145 (inclusive) dentro das CTA e aerovias; \nG; Abaixo do FL245 (inclusive) fora das CTA, aerovias",2022-12-29Z,2023-01-26Z,"78","0","0","78",25.90395341580348,277.28141889865975,-3.342,-31.574
"823",1517.000000000000000,2022-12-29Z,SECTOR,SBAO_S2,SB,SECTOR 2C,SAM,STD,FL,SFC,FL,FT,H24,999.000000000000000,0.000000000000000,NO,"SETOR 2C; FIR ATL�NTICO","(1) SETOR 1A
(2) SETOR 1B
(3) SETOR 1C
(4) SETOR 2A
(5) SETOR 2B
(6) SETOR 2C
(7) SETOR 3B
(8) SETOR 3C

D-VOLMET",SBAO,"CLASSE DE  ESPA�O A�REO: \nA; Acima do FL245 (exclusive); \nA; Entre os FL145 (exclusive) e FL245 (inclusive) dentro das CTA e aerovias; \nD; Abaixo do FL145 (inclusive) dentro das CTA e aerovias; \nG; Abaixo do FL245 (inclusive) fora das CTA, aerovias",2022-12-29Z,2023-01-26Z,"79","0","0","79",25.99586811396265,277.28683493777430,-3.330,-31.665
"823",1517.000000000000000,2022-12-29Z,SECTOR,SBAO_S2,SB,SECTOR 2C,SAM,STD,FL,SFC,FL,FT,H24,999.000000000000000,0.000000000000000,NO,"SETOR 2C; FIR ATL�NTICO","(1) SETOR 1A
(2) SETOR 1B
(3) SETOR 1C
(4) SETOR 2A
(5) SETOR 2B
(6) SETOR 2C
(7) SETOR 3B
(8) SETOR 3C

D-VOLMET",SBAO,"CLASSE DE  ESPA�O A�REO: \nA; Acima do FL245 (exclusive); \nA; Entre os FL145 (exclusive) e FL245 (inclusive) dentro das CTA e aerovias; \nD; Abaixo do FL145 (inclusive) dentro das CTA e aerovias; \nG; Abaixo do FL245 (inclusive) fora das CTA, aerovias",2022-12-29Z,2023-01-26Z,"80","0","0","80",26.08778176498045,277.29223564293335,-3.318,-31.756
"823",1517.000000000000000,2022-12-29Z,SECTOR,SBAO_S2,SB,SECTOR 2C,SAM,STD,FL,SFC,FL,FT,H24,999.000000000000000,0.000000000000000,NO,"SETOR 2C; FIR ATL�NTICO","(1) SETOR 1A
(2) SETOR 1B
(3) SETOR 1C
(4) SETOR 2A
(5) SETOR 2B
(6) SETOR 2C
(7) SETOR 3B
(8) SETOR 3C

D-VOLMET",SBAO,"CLASSE DE  ESPA�O A�REO: \nA; Acima do FL245 (exclusive); \nA; Entre os FL145 (exclusive) e FL245 (inclusive) dentro das CTA e aerovias; \nD; Abaixo do FL145 (inclusive) dentro das CTA e aerovias; \nG; Abaixo do FL245 (inclusive) fora das CTA, aerovias",2022-12-29Z,2023-01-26Z,"81","0","0","81",26.17969435467902,277.29761712971595,-3.307,-31.848
"823",1517.000000000000000,2022-12-29Z,SECTOR,SBAO_S2,SB,SECTOR 2C,SAM,STD,FL,SFC,FL,FT,H24,999.000000000000000,0.000000000000000,NO,"SETOR 2C; FIR ATL�NTICO","(1) SETOR 1A
(2) SETOR 1B
(3) SETOR 1C
(4) SETOR 2A
(5) SETOR 2B
(6) SETOR 2C
(7) SETOR 3B
(8) SETOR 3C

D-VOLMET",SBAO,"CLASSE DE  ESPA�O A�REO: \nA; Acima do FL245 (exclusive); \nA; Entre os FL145 (exclusive) e FL245 (inclusive) dentro das CTA e aerovias; \nD; Abaixo do FL145 (inclusive) dentro das CTA e aerovias; \nG; Abaixo do FL245 (inclusive) fora das CTA, aerovias",2022-12-29Z,2023-01-26Z,"82","0","0","82",26.27160591108683,277.30297670220773,-3.295,-31.939
"823",1517.000000000000000,2022-12-29Z,SECTOR,SBAO_S2,SB,SECTOR 2C,SAM,STD,FL,SFC,FL,FT,H24,999.000000000000000,0.000000000000000,NO,"SETOR 2C; FIR ATL�NTICO","(1) SETOR 1A
(2) SETOR 1B
(3) SETOR 1C
(4) SETOR 2A
(5) SETOR 2B
(6) SETOR 2C
(7) SETOR 3B
(8) SETOR 3C

D-VOLMET",SBAO,"CLASSE DE  ESPA�O A�REO: \nA; Acima do FL245 (exclusive); \nA; Entre os FL145 (exclusive) e FL245 (inclusive) dentro das CTA e aerovias; \nD; Abaixo do FL145 (inclusive) dentro das CTA e aerovias; \nG; Abaixo do FL245 (inclusive) fora das CTA, aerovias",2022-12-29Z,2023-01-26Z,"83","0","0","83",26.36351640881676,277.30831744963007,-3.283,-32.030
"823",1517.000000000000000,2022-12-29Z,SECTOR,SBAO_S2,SB,SECTOR 2C,SAM,STD,FL,SFC,FL,FT,H24,999.000000000000000,0.000000000000000,NO,"SETOR 2C; FIR ATL�NTICO","(1) SETOR 1A
(2) SETOR 1B
(3) SETOR 1C
(4) SETOR 2A
(5) SETOR 2B
(6) SETOR 2C
(7) SETOR 3B
(8) SETOR 3C

D-VOLMET",SBAO,"CLASSE DE  ESPA�O A�REO: \nA; Acima do FL245 (exclusive); \nA; Entre os FL145 (exclusive) e FL245 (inclusive) dentro das CTA e aerovias; \nD; Abaixo do FL145 (inclusive) dentro das CTA e aerovias; \nG; Abaixo do FL245 (inclusive) fora das CTA, aerovias",2022-12-29Z,2023-01-26Z,"84","0","0","84",26.45542587715223,285.90587748894899,-3.272,-32.121
"823",1517.000000000000000,2022-12-29Z,SECTOR,SBAO_S2,SB,SECTOR 2C,SAM,STD,FL,SFC,FL,FT,H24,999.000000000000000,0.000000000000000,NO,"SETOR 2C; FIR ATL�NTICO","(1) SETOR 1A
(2) SETOR 1B
(3) SETOR 1C
(4) SETOR 2A
(5) SETOR 2B
(6) SETOR 2C
(7) SETOR 3B
(8) SETOR 3C

D-VOLMET",SBAO,"CLASSE DE  ESPA�O A�REO: \nA; Acima do FL245 (exclusive); \nA; Entre os FL145 (exclusive) e FL245 (inclusive) dentro das CTA e aerovias; \nD; Abaixo do FL145 (inclusive) dentro das CTA e aerovias; \nG; Abaixo do FL245 (inclusive) fora das CTA, aerovias",2022-12-29Z,2023-01-26Z,"85","0","0","85",26.60801639286204,294.50534617182507,-3.208,-32.260
"823",1517.000000000000000,2022-12-29Z,SECTOR,SBAO_S2,SB,SECTOR 2C,SAM,STD,FL,SFC,FL,FT,H24,999.000000000000000,0.000000000000000,NO,"SETOR 2C; FIR ATL�NTICO","(1) SETOR 1A
(2) SETOR 1B
(3) SETOR 1C
(4) SETOR 2A
(5) SETOR 2B
(6) SETOR 2C
(7) SETOR 3B
(8) SETOR 3C

D-VOLMET",SBAO,"CLASSE DE  ESPA�O A�REO: \nA; Acima do FL245 (exclusive); \nA; Entre os FL145 (exclusive) e FL245 (inclusive) dentro das CTA e aerovias; \nD; Abaixo do FL145 (inclusive) dentro das CTA e aerovias; \nG; Abaixo do FL245 (inclusive) fora das CTA, aerovias",2022-12-29Z,2023-01-26Z,"86","0","0","86",26.76059926112610,294.51440888655981,-3.145,-32.399
"823",1517.000000000000000,2022-12-29Z,SECTOR,SBAO_S2,SB,SECTOR 2C,SAM,STD,FL,SFC,FL,FT,H24,999.000000000000000,0.000000000000000,NO,"SETOR 2C; FIR ATL�NTICO","(1) SETOR 1A
(2) SETOR 1B
(3) SETOR 1C
(4) SETOR 2A
(5) SETOR 2B
(6) SETOR 2C
(7) SETOR 3B
(8) SETOR 3C

D-VOLMET",SBAO,"CLASSE DE  ESPA�O A�REO: \nA; Acima do FL245 (exclusive); \nA; Entre os FL145 (exclusive) e FL245 (inclusive) dentro das CTA e aerovias; \nD; Abaixo do FL145 (inclusive) dentro das CTA e aerovias; \nG; Abaixo do FL245 (inclusive) fora das CTA, aerovias",2022-12-29Z,2023-01-26Z,"87","0","0","87",26.91317461513509,294.52329123420571,-3.082,-32.538
"823",1517.000000000000000,2022-12-29Z,SECTOR,SBAO_S2,SB,SECTOR 2C,SAM,STD,FL,SFC,FL,FT,H24,999.000000000000000,0.000000000000000,NO,"SETOR 2C; FIR ATL�NTICO","(1) SETOR 1A
(2) SETOR 1B
(3) SETOR 1C
(4) SETOR 2A
(5) SETOR 2B
(6) SETOR 2C
(7) SETOR 3B
(8) SETOR 3C

D-VOLMET",SBAO,"CLASSE DE  ESPA�O A�REO: \nA; Acima do FL245 (exclusive); \nA; Entre os FL145 (exclusive) e FL245 (inclusive) dentro das CTA e aerovias; \nD; Abaixo do FL145 (inclusive) dentro das CTA e aerovias; \nG; Abaixo do FL245 (inclusive) fora das CTA, aerovias",2022-12-29Z,2023-01-26Z,"88","0","0","88",27.06574261434903,294.53199580042303,-3.018,-32.676
"823",1517.000000000000000,2022-12-29Z,SECTOR,SBAO_S2,SB,SECTOR 2C,SAM,STD,FL,SFC,FL,FT,H24,999.000000000000000,0.000000000000000,NO,"SETOR 2C; FIR ATL�NTICO","(1) SETOR 1A
(2) SETOR 1B
(3) SETOR 1C
(4) SETOR 2A
(5) SETOR 2B
(6) SETOR 2C
(7) SETOR 3B
(8) SETOR 3C

D-VOLMET",SBAO,"CLASSE DE  ESPA�O A�REO: \nA; Acima do FL245 (exclusive); \nA; Entre os FL145 (exclusive) e FL245 (inclusive) dentro das CTA e aerovias; \nD; Abaixo do FL145 (inclusive) dentro das CTA e aerovias; \nG; Abaixo do FL245 (inclusive) fora das CTA, aerovias",2022-12-29Z,2023-01-26Z,"89","0","0","89",27.21830340891153,294.54051833671019,-2.955,-32.815
"823",1517.000000000000000,2022-12-29Z,SECTOR,SBAO_S2,SB,SECTOR 2C,SAM,STD,FL,SFC,FL,FT,H24,999.000000000000000,0.000000000000000,NO,"SETOR 2C; FIR ATL�NTICO","(1) SETOR 1A
(2) SETOR 1B
(3) SETOR 1C
(4) SETOR 2A
(5) SETOR 2B
(6) SETOR 2C
(7) SETOR 3B
(8) SETOR 3C

D-VOLMET",SBAO,"CLASSE DE  ESPA�O A�REO: \nA; Acima do FL245 (exclusive); \nA; Entre os FL145 (exclusive) e FL245 (inclusive) dentro das CTA e aerovias; \nD; Abaixo do FL145 (inclusive) dentro das CTA e aerovias; \nG; Abaixo do FL245 (inclusive) fora das CTA, aerovias",2022-12-29Z,2023-01-26Z,"90","0","0","90",27.37085715863773,294.54885786450399,-2.892,-32.954
"823",1517.000000000000000,2022-12-29Z,SECTOR,SBAO_S2,SB,SECTOR 2C,SAM,STD,FL,SFC,FL,FT,H24,999.000000000000000,0.000000000000000,NO,"SETOR 2C; FIR ATL�NTICO","(1) SETOR 1A
(2) SETOR 1B
(3) SETOR 1C
(4) SETOR 2A
(5) SETOR 2B
(6) SETOR 2C
(7) SETOR 3B
(8) SETOR 3C

D-VOLMET",SBAO,"CLASSE DE  ESPA�O A�REO: \nA; Acima do FL245 (exclusive); \nA; Entre os FL145 (exclusive) e FL245 (inclusive) dentro das CTA e aerovias; \nD; Abaixo do FL145 (inclusive) dentro das CTA e aerovias; \nG; Abaixo do FL245 (inclusive) fora das CTA, aerovias",2022-12-29Z,2023-01-26Z,"91","0","0","91",27.52340399999046,294.55701945815849,-2.828,-33.093
"823",1517.000000000000000,2022-12-29Z,SECTOR,SBAO_S2,SB,SECTOR 2C,SAM,STD,FL,SFC,FL,FT,H24,999.000000000000000,0.000000000000000,NO,"SETOR 2C; FIR ATL�NTICO","(1) SETOR 1A
(2) SETOR 1B
(3) SETOR 1C
(4) SETOR 2A
(5) SETOR 2B
(6) SETOR 2C
(7) SETOR 3B
(8) SETOR 3C

D-VOLMET",SBAO,"CLASSE DE  ESPA�O A�REO: \nA; Acima do FL245 (exclusive); \nA; Entre os FL145 (exclusive) e FL245 (inclusive) dentro das CTA e aerovias; \nD; Abaixo do FL145 (inclusive) dentro das CTA e aerovias; \nG; Abaixo do FL245 (inclusive) fora das CTA, aerovias",2022-12-29Z,2023-01-26Z,"92","0","0","92",27.67594410482510,294.56499965395057,-2.765,-33.231
"823",1517.000000000000000,2022-12-29Z,SECTOR,SBAO_S2,SB,SECTOR 2C,SAM,STD,FL,SFC,FL,FT,H24,999.000000000000000,0.000000000000000,NO,"SETOR 2C; FIR ATL�NTICO","(1) SETOR 1A
(2) SETOR 1B
(3) SETOR 1C
(4) SETOR 2A
(5) SETOR 2B
(6) SETOR 2C
(7) SETOR 3B
(8) SETOR 3C

D-VOLMET",SBAO,"CLASSE DE  ESPA�O A�REO: \nA; Acima do FL245 (exclusive); \nA; Entre os FL145 (exclusive) e FL245 (inclusive) dentro das CTA e aerovias; \nD; Abaixo do FL145 (inclusive) dentro das CTA e aerovias; \nG; Abaixo do FL245 (inclusive) fora das CTA, aerovias",2022-12-29Z,2023-01-26Z,"93","0","0","93",27.82847760088215,294.57279840377981,-2.701,-33.370
"823",1517.000000000000000,2022-12-29Z,SECTOR,SBAO_S2,SB,SECTOR 2C,SAM,STD,FL,SFC,FL,FT,H24,999.000000000000000,0.000000000000000,NO,"SETOR 2C; FIR ATL�NTICO","(1) SETOR 1A
(2) SETOR 1B
(3) SETOR 1C
(4) SETOR 2A
(5) SETOR 2B
(6) SETOR 2C
(7) SETOR 3B
(8) SETOR 3C

D-VOLMET",SBAO,"CLASSE DE  ESPA�O A�REO: \nA; Acima do FL245 (exclusive); \nA; Entre os FL145 (exclusive) e FL245 (inclusive) dentro das CTA e aerovias; \nD; Abaixo do FL145 (inclusive) dentro das CTA e aerovias; \nG; Abaixo do FL245 (inclusive) fora das CTA, aerovias",2022-12-29Z,2023-01-26Z,"94","0","0","94",27.98100465961589,294.42238804471742,-2.638,-33.509
"823",1517.000000000000000,2022-12-29Z,SECTOR,SBAO_S2,SB,SECTOR 2C,SAM,STD,FL,SFC,FL,FT,H24,999.000000000000000,0.000000000000000,NO,"SETOR 2C; FIR ATL�NTICO","(1) SETOR 1A
(2) SETOR 1B
(3) SETOR 1C
(4) SETOR 2A
(5) SETOR 2B
(6) SETOR 2C
(7) SETOR 3B
(8) SETOR 3C

D-VOLMET",SBAO,"CLASSE DE  ESPA�O A�REO: \nA; Acima do FL245 (exclusive); \nA; Entre os FL145 (exclusive) e FL245 (inclusive) dentro das CTA e aerovias; \nD; Abaixo do FL145 (inclusive) dentro das CTA e aerovias; \nG; Abaixo do FL245 (inclusive) fora das CTA, aerovias",2022-12-29Z,2023-01-26Z,"95","0","0","95",28.13149812266868,294.27174508466999,-2.576,-33.646
"823",1517.000000000000000,2022-12-29Z,SECTOR,SBAO_S2,SB,SECTOR 2C,SAM,STD,FL,SFC,FL,FT,H24,999.000000000000000,0.000000000000000,NO,"SETOR 2C; FIR ATL�NTICO","(1) SETOR 1A
(2) SETOR 1B
(3) SETOR 1C
(4) SETOR 2A
(5) SETOR 2B
(6) SETOR 2C
(7) SETOR 3B
(8) SETOR 3C

D-VOLMET",SBAO,"CLASSE DE  ESPA�O A�REO: \nA; Acima do FL245 (exclusive); \nA; Entre os FL145 (exclusive) e FL245 (inclusive) dentro das CTA e aerovias; \nD; Abaixo do FL145 (inclusive) dentro das CTA e aerovias; \nG; Abaixo do FL245 (inclusive) fora das CTA, aerovias",2022-12-29Z,2023-01-26Z,"96","0","0","96",28.28198563180700,294.27890385800453,-2.514,-33.783
"823",1517.000000000000000,2022-12-29Z,SECTOR,SBAO_S2,SB,SECTOR 2C,SAM,STD,FL,SFC,FL,FT,H24,999.000000000000000,0.000000000000000,NO,"SETOR 2C; FIR ATL�NTICO","(1) SETOR 1A
(2) SETOR 1B
(3) SETOR 1C
(4) SETOR 2A
(5) SETOR 2B
(6) SETOR 2C
(7) SETOR 3B
(8) SETOR 3C

D-VOLMET",SBAO,"CLASSE DE  ESPA�O A�REO: \nA; Acima do FL245 (exclusive); \nA; Entre os FL145 (exclusive) e FL245 (inclusive) dentro das CTA e aerovias; \nD; Abaixo do FL145 (inclusive) dentro das CTA e aerovias; \nG; Abaixo do FL245 (inclusive) fora das CTA, aerovias",2022-12-29Z,2023-01-26Z,"97","0","0","97",28.43246734630904,294.28588908812213,-2.452,-33.920
"823",1517.000000000000000,2022-12-29Z,SECTOR,SBAO_S2,SB,SECTOR 2C,SAM,STD,FL,SFC,FL,FT,H24,999.000000000000000,0.000000000000000,NO,"SETOR 2C; FIR ATL�NTICO","(1) SETOR 1A
(2) SETOR 1B
(3) SETOR 1C
(4) SETOR 2A
(5) SETOR 2B
(6) SETOR 2C
(7) SETOR 3B
(8) SETOR 3C

D-VOLMET",SBAO,"CLASSE DE  ESPA�O A�REO: \nA; Acima do FL245 (exclusive); \nA; Entre os FL145 (exclusive) e FL245 (inclusive) dentro das CTA e aerovias; \nD; Abaixo do FL145 (inclusive) dentro das CTA e aerovias; \nG; Abaixo do FL245 (inclusive) fora das CTA, aerovias",2022-12-29Z,2023-01-26Z,"98","0","0","98",28.58294341205659,294.29270056527520,-2.391,-34.058
"823",1517.000000000000000,2022-12-29Z,SECTOR,SBAO_S2,SB,SECTOR 2C,SAM,STD,FL,SFC,FL,FT,H24,999.000000000000000,0.000000000000000,NO,"SETOR 2C; FIR ATL�NTICO","(1) SETOR 1A
(2) SETOR 1B
(3) SETOR 1C
(4) SETOR 2A
(5) SETOR 2B
(6) SETOR 2C
(7) SETOR 3B
(8) SETOR 3C

D-VOLMET",SBAO,"CLASSE DE  ESPA�O A�REO: \nA; Acima do FL245 (exclusive); \nA; Entre os FL145 (exclusive) e FL245 (inclusive) dentro das CTA e aerovias; \nD; Abaixo do FL145 (inclusive) dentro das CTA e aerovias; \nG; Abaixo do FL245 (inclusive) fora das CTA, aerovias",2022-12-29Z,2023-01-26Z,"99","0","0","99",28.73341396565133,294.29933903440491,-2.329,-34.195
"823",1517.000000000000000,2022-12-29Z,SECTOR,SBAO_S2,SB,SECTOR 2C,SAM,STD,FL,SFC,FL,FT,H24,999.000000000000000,0.000000000000000,NO,"SETOR 2C; FIR ATL�NTICO","(1) SETOR 1A
(2) SETOR 1B
(3) SETOR 1C
(4) SETOR 2A
(5) SETOR 2B
(6) SETOR 2C
(7) SETOR 3B
(8) SETOR 3C

D-VOLMET",SBAO,"CLASSE DE  ESPA�O A�REO: \nA; Acima do FL245 (exclusive); \nA; Entre os FL145 (exclusive) e FL245 (inclusive) dentro das CTA e aerovias; \nD; Abaixo do FL145 (inclusive) dentro das CTA e aerovias; \nG; Abaixo do FL245 (inclusive) fora das CTA, aerovias",2022-12-29Z,2023-01-26Z,"100","0","0","100",28.88387914353473,294.30580289115221,-2.267,-34.332
"823",1517.000000000000000,2022-12-29Z,SECTOR,SBAO_S2,SB,SECTOR 2C,SAM,STD,FL,SFC,FL,FT,H24,999.000000000000000,0.000000000000000,NO,"SETOR 2C; FIR ATL�NTICO","(1) SETOR 1A
(2) SETOR 1B
(3) SETOR 1C
(4) SETOR 2A
(5) SETOR 2B
(6) SETOR 2C
(7) SETOR 3B
(8) SETOR 3C

D-VOLMET",SBAO,"CLASSE DE  ESPA�O A�REO: \nA; Acima do FL245 (exclusive); \nA; Entre os FL145 (exclusive) e FL245 (inclusive) dentro das CTA e aerovias; \nD; Abaixo do FL145 (inclusive) dentro das CTA e aerovias; \nG; Abaixo do FL245 (inclusive) fora das CTA, aerovias",2022-12-29Z,2023-01-26Z,"101","0","0","101",29.03433910021890,294.31209209886015,-2.205,-34.469
"823",1517.000000000000000,2022-12-29Z,SECTOR,SBAO_S2,SB,SECTOR 2C,SAM,STD,FL,SFC,FL,FT,H24,999.000000000000000,0.000000000000000,NO,"SETOR 2C; FIR ATL�NTICO","(1) SETOR 1A
(2) SETOR 1B
(3) SETOR 1C
(4) SETOR 2A
(5) SETOR 2B
(6) SETOR 2C
(7) SETOR 3B
(8) SETOR 3C

D-VOLMET",SBAO,"CLASSE DE  ESPA�O A�REO: \nA; Acima do FL245 (exclusive); \nA; Entre os FL145 (exclusive) e FL245 (inclusive) dentro das CTA e aerovias; \nD; Abaixo do FL145 (inclusive) dentro das CTA e aerovias; \nG; Abaixo do FL245 (inclusive) fora das CTA, aerovias",2022-12-29Z,2023-01-26Z,"102","0","0","102",29.18479397183541,294.31820914039230,-2.143,-34.606
"823",1517.000000000000000,2022-12-29Z,SECTOR,SBAO_S2,SB,SECTOR 2C,SAM,STD,FL,SFC,FL,FT,H24,999.000000000000000,0.000000000000000,NO,"SETOR 2C; FIR ATL�NTICO","(1) SETOR 1A
(2) SETOR 1B
(3) SETOR 1C
(4) SETOR 2A
(5) SETOR 2B
(6) SETOR 2C
(7) SETOR 3B
(8) SETOR 3C

D-VOLMET",SBAO,"CLASSE DE  ESPA�O A�REO: \nA; Acima do FL245 (exclusive); \nA; Entre os FL145 (exclusive) e FL245 (inclusive) dentro das CTA e aerovias; \nD; Abaixo do FL145 (inclusive) dentro das CTA e aerovias; \nG; Abaixo do FL245 (inclusive) fora das CTA, aerovias",2022-12-29Z,2023-01-26Z,"103","0","0","103",29.33524390759901,294.32414972676787,-2.081,-34.743
"823",1517.000000000000000,2022-12-29Z,SECTOR,SBAO_S2,SB,SECTOR 2C,SAM,STD,FL,SFC,FL,FT,H24,999.000000000000000,0.000000000000000,NO,"SETOR 2C; FIR ATL�NTICO","(1) SETOR 1A
(2) SETOR 1B
(3) SETOR 1C
(4) SETOR 2A
(5) SETOR 2B
(6) SETOR 2C
(7) SETOR 3B
(8) SETOR 3C

D-VOLMET",SBAO,"CLASSE DE  ESPA�O A�REO: \nA; Acima do FL245 (exclusive); \nA; Entre os FL145 (exclusive) e FL245 (inclusive) dentro das CTA e aerovias; \nD; Abaixo do FL145 (inclusive) dentro das CTA e aerovias; \nG; Abaixo do FL245 (inclusive) fora das CTA, aerovias",2022-12-29Z,2023-01-26Z,"104","0","0","104",29.48568904422397,294.83366224531824,-2.019,-34.880
"823",1517.000000000000000,2022-12-29Z,SECTOR,SBAO_S2,SB,SECTOR 2C,SAM,STD,FL,SFC,FL,FT,H24,999.000000000000000,0.000000000000000,NO,"SETOR 2C; FIR ATL�NTICO","(1) SETOR 1A
(2) SETOR 1B
(3) SETOR 1C
(4) SETOR 2A
(5) SETOR 2B
(6) SETOR 2C
(7) SETOR 3B
(8) SETOR 3C

D-VOLMET",SBAO,"CLASSE DE  ESPA�O A�REO: \nA; Acima do FL245 (exclusive); \nA; Entre os FL145 (exclusive) e FL245 (inclusive) dentro das CTA e aerovias; \nD; Abaixo do FL145 (inclusive) dentro das CTA e aerovias; \nG; Abaixo do FL245 (inclusive) fora das CTA, aerovias",2022-12-29Z,2023-01-26Z,"105","0","0","105",29.54993450705809,295.34145246913505,-1.991,-34.938
"823",1517.000000000000000,2022-12-29Z,SECTOR,SBAO_S2,SB,SECTOR 2C,SAM,STD,FL,SFC,FL,FT,H24,999.000000000000000,0.000000000000000,NO,"SETOR 2C; FIR ATL�NTICO","(1) SETOR 1A
(2) SETOR 1B
(3) SETOR 1C
(4) SETOR 2A
(5) SETOR 2B
(6) SETOR 2C
(7) SETOR 3B
(8) SETOR 3C

D-VOLMET",SBAO,"CLASSE DE  ESPA�O A�REO: \nA; Acima do FL245 (exclusive); \nA; Entre os FL145 (exclusive) e FL245 (inclusive) dentro das CTA e aerovias; \nD; Abaixo do FL145 (inclusive) dentro das CTA e aerovias; \nG; Abaixo do FL245 (inclusive) fora das CTA, aerovias",2022-12-29Z,2023-01-26Z,"106","0","0","106",29.61417911159458,295.34383390364252,-1.964,-34.996
"823",1517.000000000000000,2022-12-29Z,SECTOR,SBAO_S2,SB,SECTOR 2C,SAM,STD,FL,SFC,FL,FT,H24,999.000000000000000,0.000000000000000,NO,"SETOR 2C; FIR ATL�NTICO","(1) SETOR 1A
(2) SETOR 1B
(3) SETOR 1C
(4) SETOR 2A
(5) SETOR 2B
(6) SETOR 2C
(7) SETOR 3B
(8) SETOR 3C

D-VOLMET",SBAO,"CLASSE DE  ESPA�O A�REO: \nA; Acima do FL245 (exclusive); \nA; Entre os FL145 (exclusive) e FL245 (inclusive) dentro das CTA e aerovias; \nD; Abaixo do FL145 (inclusive) dentro das CTA e aerovias; \nG; Abaixo do FL245 (inclusive) fora das CTA, aerovias",2022-12-29Z,2023-01-26Z,"107","0","0","107",29.67842287697377,295.34618570644693,-1.936,-35.054
"823",1517.000000000000000,2022-12-29Z,SECTOR,SBAO_S2,SB,SECTOR 2C,SAM,STD,FL,SFC,FL,FT,H24,999.000000000000000,0.000000000000000,NO,"SETOR 2C; FIR ATL�NTICO","(1) SETOR 1A
(2) SETOR 1B
(3) SETOR 1C
(4) SETOR 2A
(5) SETOR 2B
(6) SETOR 2C
(7) SETOR 3B
(8) SETOR 3C

D-VOLMET",SBAO,"CLASSE DE  ESPA�O A�REO: \nA; Acima do FL245 (exclusive); \nA; Entre os FL145 (exclusive) e FL245 (inclusive) dentro das CTA e aerovias; \nD; Abaixo do FL145 (inclusive) dentro das CTA e aerovias; \nG; Abaixo do FL245 (inclusive) fora das CTA, aerovias",2022-12-29Z,2023-01-26Z,"108","0","0","108",29.74266580806069,295.34850384460452,-1.909,-35.113
"823",1517.000000000000000,2022-12-29Z,SECTOR,SBAO_S2,SB,SECTOR 2C,SAM,STD,FL,SFC,FL,FT,H24,999.000000000000000,0.000000000000000,NO,"SETOR 2C; FIR ATL�NTICO","(1) SETOR 1A
(2) SETOR 1B
(3) SETOR 1C
(4) SETOR 2A
(5) SETOR 2B
(6) SETOR 2C
(7) SETOR 3B
(8) SETOR 3C

D-VOLMET",SBAO,"CLASSE DE  ESPA�O A�REO: \nA; Acima do FL245 (exclusive); \nA; Entre os FL145 (exclusive) e FL245 (inclusive) dentro das CTA e aerovias; \nD; Abaixo do FL145 (inclusive) dentro das CTA e aerovias; \nG; Abaixo do FL245 (inclusive) fora das CTA, aerovias",2022-12-29Z,2023-01-26Z,"109","0","0","109",29.80690791970442,295.35078640679092,-1.881,-35.171
"823",1517.000000000000000,2022-12-29Z,SECTOR,SBAO_S2,SB,SECTOR 2C,SAM,STD,FL,SFC,FL,FT,H24,999.000000000000000,0.000000000000000,NO,"SETOR 2C; FIR ATL�NTICO","(1) SETOR 1A
(2) SETOR 1B
(3) SETOR 1C
(4) SETOR 2A
(5) SETOR 2B
(6) SETOR 2C
(7) SETOR 3B
(8) SETOR 3C

D-VOLMET",SBAO,"CLASSE DE  ESPA�O A�REO: \nA; Acima do FL245 (exclusive); \nA; Entre os FL145 (exclusive) e FL245 (inclusive) dentro das CTA e aerovias; \nD; Abaixo do FL145 (inclusive) dentro das CTA e aerovias; \nG; Abaixo do FL245 (inclusive) fora das CTA, aerovias",2022-12-29Z,2023-01-26Z,"110","0","0","110",29.87114922579975,295.35303932939252,-1.854,-35.229
"823",1517.000000000000000,2022-12-29Z,SECTOR,SBAO_S2,SB,SECTOR 2C,SAM,STD,FL,SFC,FL,FT,H24,999.000000000000000,0.000000000000000,NO,"SETOR 2C; FIR ATL�NTICO","(1) SETOR 1A
(2) SETOR 1B
(3) SETOR 1C
(4) SETOR 2A
(5) SETOR 2B
(6) SETOR 2C
(7) SETOR 3B
(8) SETOR 3C

D-VOLMET",SBAO,"CLASSE DE  ESPA�O A�REO: \nA; Acima do FL245 (exclusive); \nA; Entre os FL145 (exclusive) e FL245 (inclusive) dentro das CTA e aerovias; \nD; Abaixo do FL145 (inclusive) dentro das CTA e aerovias; \nG; Abaixo do FL245 (inclusive) fora das CTA, aerovias",2022-12-29Z,2023-01-26Z,"111","0","0","111",29.93538973642978,295.35525455033650,-1.826,-35.287
"823",1517.000000000000000,2022-12-29Z,SECTOR,SBAO_S2,SB,SECTOR 2C,SAM,STD,FL,SFC,FL,FT,H24,999.000000000000000,0.000000000000000,NO,"SETOR 2C; FIR ATL�NTICO","(1) SETOR 1A
(2) SETOR 1B
(3) SETOR 1C
(4) SETOR 2A
(5) SETOR 2B
(6) SETOR 2C
(7) SETOR 3B
(8) SETOR 3C

D-VOLMET",SBAO,"CLASSE DE  ESPA�O A�REO: \nA; Acima do FL245 (exclusive); \nA; Entre os FL145 (exclusive) e FL245 (inclusive) dentro das CTA e aerovias; \nD; Abaixo do FL145 (inclusive) dentro das CTA e aerovias; \nG; Abaixo do FL245 (inclusive) fora das CTA, aerovias",2022-12-29Z,2023-01-26Z,"112","0","0","112",29.99962945691775,295.35744012704612,-1.799,-35.345
"823",1517.000000000000000,2022-12-29Z,SECTOR,SBAO_S2,SB,SECTOR 2C,SAM,STD,FL,SFC,FL,FT,H24,999.000000000000000,0.000000000000000,NO,"SETOR 2C; FIR ATL�NTICO","(1) SETOR 1A
(2) SETOR 1B
(3) SETOR 1C
(4) SETOR 2A
(5) SETOR 2B
(6) SETOR 2C
(7) SETOR 3B
(8) SETOR 3C

D-VOLMET",SBAO,"CLASSE DE  ESPA�O A�REO: \nA; Acima do FL245 (exclusive); \nA; Entre os FL145 (exclusive) e FL245 (inclusive) dentro das CTA e aerovias; \nD; Abaixo do FL145 (inclusive) dentro das CTA e aerovias; \nG; Abaixo do FL245 (inclusive) fora das CTA, aerovias",2022-12-29Z,2023-01-26Z,"113","0","0","113",30.06386840590204,295.35959414729325,-1.771,-35.403
"823",1517.000000000000000,2022-12-29Z,SECTOR,SBAO_S2,SB,SECTOR 2C,SAM,STD,FL,SFC,FL,FT,H24,999.000000000000000,0.000000000000000,NO,"SETOR 2C; FIR ATL�NTICO","(1) SETOR 1A
(2) SETOR 1B
(3) SETOR 1C
(4) SETOR 2A
(5) SETOR 2B
(6) SETOR 2C
(7) SETOR 3B
(8) SETOR 3C

D-VOLMET",SBAO,"CLASSE DE  ESPA�O A�REO: \nA; Acima do FL245 (exclusive); \nA; Entre os FL145 (exclusive) e FL245 (inclusive) dentro das CTA e aerovias; \nD; Abaixo do FL145 (inclusive) dentro das CTA e aerovias; \nG; Abaixo do FL245 (inclusive) fora das CTA, aerovias",2022-12-29Z,2023-01-26Z,"114","0","0","114",30.12810659773439,296.00531439087291,-1.744,-35.461
"823",1517.000000000000000,2022-12-29Z,SECTOR,SBAO_S2,SB,SECTOR 2C,SAM,STD,FL,SFC,FL,FT,H24,999.000000000000000,0.000000000000000,NO,"SETOR 2C; FIR ATL�NTICO","(1) SETOR 1A
(2) SETOR 1B
(3) SETOR 1C
(4) SETOR 2A
(5) SETOR 2B
(6) SETOR 2C
(7) SETOR 3B
(8) SETOR 3C

D-VOLMET",SBAO,"CLASSE DE  ESPA�O A�REO: \nA; Acima do FL245 (exclusive); \nA; Entre os FL145 (exclusive) e FL245 (inclusive) dentro das CTA e aerovias; \nD; Abaixo do FL145 (inclusive) dentro das CTA e aerovias; \nG; Abaixo do FL245 (inclusive) fora das CTA, aerovias",2022-12-29Z,2023-01-26Z,"115","0","0","115",30.21323715770565,296.65133519402957,-1.706,-35.537
"823",1517.000000000000000,2022-12-29Z,SECTOR,SBAO_S2,SB,SECTOR 2C,SAM,STD,FL,SFC,FL,FT,H24,999.000000000000000,0.000000000000000,NO,"SETOR 2C; FIR ATL�NTICO","(1) SETOR 1A
(2) SETOR 1B
(3) SETOR 1C
(4) SETOR 2A
(5) SETOR 2B
(6) SETOR 2C
(7) SETOR 3B
(8) SETOR 3C

D-VOLMET",SBAO,"CLASSE DE  ESPA�O A�REO: \nA; Acima do FL245 (exclusive); \nA; Entre os FL145 (exclusive) e FL245 (inclusive) dentro das CTA e aerovias; \nD; Abaixo do FL145 (inclusive) dentro das CTA e aerovias; \nG; Abaixo do FL245 (inclusive) fora das CTA, aerovias",2022-12-29Z,2023-01-26Z,"116","0","0","116",30.29836641346445,296.65404097185132,-1.667,-35.613
"823",1517.000000000000000,2022-12-29Z,SECTOR,SBAO_S2,SB,SECTOR 2C,SAM,STD,FL,SFC,FL,FT,H24,999.000000000000000,0.000000000000000,NO,"SETOR 2C; FIR ATL�NTICO","(1) SETOR 1A
(2) SETOR 1B
(3) SETOR 1C
(4) SETOR 2A
(5) SETOR 2B
(6) SETOR 2C
(7) SETOR 3B
(8) SETOR 3C

D-VOLMET",SBAO,"CLASSE DE  ESPA�O A�REO: \nA; Acima do FL245 (exclusive); \nA; Entre os FL145 (exclusive) e FL245 (inclusive) dentro das CTA e aerovias; \nD; Abaixo do FL145 (inclusive) dentro das CTA e aerovias; \nG; Abaixo do FL245 (inclusive) fora das CTA, aerovias",2022-12-29Z,2023-01-26Z,"117","0","0","117",30.38349437400127,296.65668360021505,-1.629,-35.689
"823",1517.000000000000000,2022-12-29Z,SECTOR,SBAO_S2,SB,SECTOR 2C,SAM,STD,FL,SFC,FL,FT,H24,999.000000000000000,0.000000000000000,NO,"SETOR 2C; FIR ATL�NTICO","(1) SETOR 1A
(2) SETOR 1B
(3) SETOR 1C
(4) SETOR 2A
(5) SETOR 2B
(6) SETOR 2C
(7) SETOR 3B
(8) SETOR 3C

D-VOLMET",SBAO,"CLASSE DE  ESPA�O A�REO: \nA; Acima do FL245 (exclusive); \nA; Entre os FL145 (exclusive) e FL245 (inclusive) dentro das CTA e aerovias; \nD; Abaixo do FL145 (inclusive) dentro das CTA e aerovias; \nG; Abaixo do FL245 (inclusive) fora das CTA, aerovias",2022-12-29Z,2023-01-26Z,"118","0","0","118",30.46862107065409,296.65926455972175,-1.591,-35.765
"823",1517.000000000000000,2022-12-29Z,SECTOR,SBAO_S2,SB,SECTOR 2C,SAM,STD,FL,SFC,FL,FT,H24,999.000000000000000,0.000000000000000,NO,"SETOR 2C; FIR ATL�NTICO","(1) SETOR 1A
(2) SETOR 1B
(3) SETOR 1C
(4) SETOR 2A
(5) SETOR 2B
(6) SETOR 2C
(7) SETOR 3B
(8) SETOR 3C

D-VOLMET",SBAO,"CLASSE DE  ESPA�O A�REO: \nA; Acima do FL245 (exclusive); \nA; Entre os FL145 (exclusive) e FL245 (inclusive) dentro das CTA e aerovias; \nD; Abaixo do FL145 (inclusive) dentro das CTA e aerovias; \nG; Abaixo do FL245 (inclusive) fora das CTA, aerovias",2022-12-29Z,2023-01-26Z,"119","0","0","119",30.55374654817189,296.66178686481271,-1.553,-35.841
"823",1517.000000000000000,2022-12-29Z,SECTOR,SBAO_S2,SB,SECTOR 2C,SAM,STD,FL,SFC,FL,FT,H24,999.000000000000000,0.000000000000000,NO,"SETOR 2C; FIR ATL�NTICO","(1) SETOR 1A
(2) SETOR 1B
(3) SETOR 1C
(4) SETOR 2A
(5) SETOR 2B
(6) SETOR 2C
(7) SETOR 3B
(8) SETOR 3C

D-VOLMET",SBAO,"CLASSE DE  ESPA�O A�REO: \nA; Acima do FL245 (exclusive); \nA; Entre os FL145 (exclusive) e FL245 (inclusive) dentro das CTA e aerovias; \nD; Abaixo do FL145 (inclusive) dentro das CTA e aerovias; \nG; Abaixo do FL245 (inclusive) fora das CTA, aerovias",2022-12-29Z,2023-01-26Z,"120","0","0","120",30.63887081999442,296.66424750239588,-1.515,-35.917
"823",1517.000000000000000,2022-12-29Z,SECTOR,SBAO_S2,SB,SECTOR 2C,SAM,STD,FL,SFC,FL,FT,H24,999.000000000000000,0.000000000000000,NO,"SETOR 2C; FIR ATL�NTICO","(1) SETOR 1A
(2) SETOR 1B
(3) SETOR 1C
(4) SETOR 2A
(5) SETOR 2B
(6) SETOR 2C
(7) SETOR 3B
(8) SETOR 3C

D-VOLMET",SBAO,"CLASSE DE  ESPA�O A�REO: \nA; Acima do FL245 (exclusive); \nA; Entre os FL145 (exclusive) e FL245 (inclusive) dentro das CTA e aerovias; \nD; Abaixo do FL145 (inclusive) dentro das CTA e aerovias; \nG; Abaixo do FL245 (inclusive) fora das CTA, aerovias",2022-12-29Z,2023-01-26Z,"121","0","0","121",30.72399392635964,296.66664344702110,-1.476,-35.993
"823",1517.000000000000000,2022-12-29Z,SECTOR,SBAO_S2,SB,SECTOR 2C,SAM,STD,FL,SFC,FL,FT,H24,999.000000000000000,0.000000000000000,NO,"SETOR 2C; FIR ATL�NTICO","(1) SETOR 1A
(2) SETOR 1B
(3) SETOR 1C
(4) SETOR 2A
(5) SETOR 2B
(6) SETOR 2C
(7) SETOR 3B
(8) SETOR 3C

D-VOLMET",SBAO,"CLASSE DE  ESPA�O A�REO: \nA; Acima do FL245 (exclusive); \nA; Entre os FL145 (exclusive) e FL245 (inclusive) dentro das CTA e aerovias; \nD; Abaixo do FL145 (inclusive) dentro das CTA e aerovias; \nG; Abaixo do FL245 (inclusive) fora das CTA, aerovias",2022-12-29Z,2023-01-26Z,"122","0","0","122",30.80911589855674,296.66898223230316,-1.438,-36.069
"823",1517.000000000000000,2022-12-29Z,SECTOR,SBAO_S2,SB,SECTOR 2C,SAM,STD,FL,SFC,FL,FT,H24,999.000000000000000,0.000000000000000,NO,"SETOR 2C; FIR ATL�NTICO","(1) SETOR 1A
(2) SETOR 1B
(3) SETOR 1C
(4) SETOR 2A
(5) SETOR 2B
(6) SETOR 2C
(7) SETOR 3B
(8) SETOR 3C

D-VOLMET",SBAO,"CLASSE DE  ESPA�O A�REO: \nA; Acima do FL245 (exclusive); \nA; Entre os FL145 (exclusive) e FL245 (inclusive) dentro das CTA e aerovias; \nD; Abaixo do FL145 (inclusive) dentro das CTA e aerovias; \nG; Abaixo do FL245 (inclusive) fora das CTA, aerovias",2022-12-29Z,2023-01-26Z,"123","0","0","123",30.89423675447972,296.67125933545549,-1.400,-36.146
"823",1517.000000000000000,2022-12-29Z,SECTOR,SBAO_S2,SB,SECTOR 2C,SAM,STD,FL,SFC,FL,FT,H24,999.000000000000000,0.000000000000000,NO,"SETOR 2C; FIR ATL�NTICO","(1) SETOR 1A
(2) SETOR 1B
(3) SETOR 1C
(4) SETOR 2A
(5) SETOR 2B
(6) SETOR 2C
(7) SETOR 3B
(8) SETOR 3C

D-VOLMET",SBAO,"CLASSE DE  ESPA�O A�REO: \nA; Acima do FL245 (exclusive); \nA; Entre os FL145 (exclusive) e FL245 (inclusive) dentro das CTA e aerovias; \nD; Abaixo do FL145 (inclusive) dentro das CTA e aerovias; \nG; Abaixo do FL245 (inclusive) fora das CTA, aerovias",2022-12-29Z,2023-01-26Z,"124","0","0","124",30.97935652984322,342.67291641051440,-1.362,-36.222
"823",1517.000000000000000,2022-12-29Z,SECTOR,SBAO_S2,SB,SECTOR 2C,SAM,STD,FL,SFC,FL,FT,H24,999.000000000000000,0.000000000000000,NO,"SETOR 2C; FIR ATL�NTICO","(1) SETOR 1A
(2) SETOR 1B
(3) SETOR 1C
(4) SETOR 2A
(5) SETOR 2B
(6) SETOR 2C
(7) SETOR 3B
(8) SETOR 3C

D-VOLMET",SBAO,"CLASSE DE  ESPA�O A�REO: \nA; Acima do FL245 (exclusive); \nA; Entre os FL145 (exclusive) e FL245 (inclusive) dentro das CTA e aerovias; \nD; Abaixo do FL145 (inclusive) dentro das CTA e aerovias; \nG; Abaixo do FL245 (inclusive) fora das CTA, aerovias",2022-12-29Z,2023-01-26Z,"125","0","0","125",31.78792928022049,28.66952896132477,-0.652,-35.834
"823",1517.000000000000000,2022-12-29Z,SECTOR,SBAO_S2,SB,SECTOR 2C,SAM,STD,FL,SFC,FL,FT,H24,999.000000000000000,0.000000000000000,NO,"SETOR 2C; FIR ATL�NTICO","(1) SETOR 1A
(2) SETOR 1B
(3) SETOR 1C
(4) SETOR 2A
(5) SETOR 2B
(6) SETOR 2C
(7) SETOR 3B
(8) SETOR 3C

D-VOLMET",SBAO,"CLASSE DE  ESPA�O A�REO: \nA; Acima do FL245 (exclusive); \nA; Entre os FL145 (exclusive) e FL245 (inclusive) dentro das CTA e aerovias; \nD; Abaixo do FL145 (inclusive) dentro das CTA e aerovias; \nG; Abaixo do FL245 (inclusive) fora das CTA, aerovias",2022-12-29Z,2023-01-26Z,"126","0","0","126",32.59647806877039,28.66594786109391,0.057,-35.446
"823",1517.000000000000000,2022-12-29Z,SECTOR,SBAO_S2,SB,SECTOR 2C,SAM,STD,FL,SFC,FL,FT,H24,999.000000000000000,0.000000000000000,NO,"SETOR 2C; FIR ATL�NTICO","(1) SETOR 1A
(2) SETOR 1B
(3) SETOR 1C
(4) SETOR 2A
(5) SETOR 2B
(6) SETOR 2C
(7) SETOR 3B
(8) SETOR 3C

D-VOLMET",SBAO,"CLASSE DE  ESPA�O A�REO: \nA; Acima do FL245 (exclusive); \nA; Entre os FL145 (exclusive) e FL245 (inclusive) dentro das CTA e aerovias; \nD; Abaixo do FL145 (inclusive) dentro das CTA e aerovias; \nG; Abaixo do FL245 (inclusive) fora das CTA, aerovias",2022-12-29Z,2023-01-26Z,"127","0","0","127",33.40502895768233,28.67090033410887,0.766,-35.058
"823",1517.000000000000000,2022-12-29Z,SECTOR,SBAO_S2,SB,SECTOR 2C,SAM,STD,FL,SFC,FL,FT,H24,999.000000000000000,0.000000000000000,NO,"SETOR 2C; FIR ATL�NTICO","(1) SETOR 1A
(2) SETOR 1B
(3) SETOR 1C
(4) SETOR 2A
(5) SETOR 2B
(6) SETOR 2C
(7) SETOR 3B
(8) SETOR 3C

D-VOLMET",SBAO,"CLASSE DE  ESPA�O A�REO: \nA; Acima do FL245 (exclusive); \nA; Entre os FL145 (exclusive) e FL245 (inclusive) dentro das CTA e aerovias; \nD; Abaixo do FL145 (inclusive) dentro das CTA e aerovias; \nG; Abaixo do FL245 (inclusive) fora das CTA, aerovias",2022-12-29Z,2023-01-26Z,"128","0","0","128",34.21360798632642,28.68439093441134,1.476,-34.670
"823",1517.000000000000000,2022-12-29Z,SECTOR,SBAO_S2,SB,SECTOR 2C,SAM,STD,FL,SFC,FL,FT,H24,999.000000000000000,0.000000000000000,NO,"SETOR 2C; FIR ATL�NTICO","(1) SETOR 1A
(2) SETOR 1B
(3) SETOR 1C
(4) SETOR 2A
(5) SETOR 2B
(6) SETOR 2C
(7) SETOR 3B
(8) SETOR 3C

D-VOLMET",SBAO,"CLASSE DE  ESPA�O A�REO: \nA; Acima do FL245 (exclusive); \nA; Entre os FL145 (exclusive) e FL245 (inclusive) dentro das CTA e aerovias; \nD; Abaixo do FL145 (inclusive) dentro das CTA e aerovias; \nG; Abaixo do FL245 (inclusive) fora das CTA, aerovias",2022-12-29Z,2023-01-26Z,"129","0","0","129",35.02224130750123,28.70643086705737,2.185,-34.282
"823",1517.000000000000000,2022-12-29Z,SECTOR,SBAO_S2,SB,SECTOR 2C,SAM,STD,FL,SFC,FL,FT,H24,999.000000000000000,0.000000000000000,NO,"SETOR 2C; FIR ATL�NTICO","(1) SETOR 1A
(2) SETOR 1B
(3) SETOR 1C
(4) SETOR 2A
(5) SETOR 2B
(6) SETOR 2C
(7) SETOR 3B
(8) SETOR 3C

D-VOLMET",SBAO,"CLASSE DE  ESPA�O A�REO: \nA; Acima do FL245 (exclusive); \nA; Entre os FL145 (exclusive) e FL245 (inclusive) dentro das CTA e aerovias; \nD; Abaixo do FL145 (inclusive) dentro das CTA e aerovias; \nG; Abaixo do FL245 (inclusive) fora das CTA, aerovias",2022-12-29Z,2023-01-26Z,"130","0","0","130",35.83095523045235,28.73703833559065,2.894,-33.893
"823",1517.000000000000000,2022-12-29Z,SECTOR,SBAO_S2,SB,SECTOR 2C,SAM,STD,FL,SFC,FL,FT,H24,999.000000000000000,0.000000000000000,NO,"SETOR 2C; FIR ATL�NTICO","(1) SETOR 1A
(2) SETOR 1B
(3) SETOR 1C
(4) SETOR 2A
(5) SETOR 2B
(6) SETOR 2C
(7) SETOR 3B
(8) SETOR 3C

D-VOLMET",SBAO,"CLASSE DE  ESPA�O A�REO: \nA; Acima do FL245 (exclusive); \nA; Entre os FL145 (exclusive) e FL245 (inclusive) dentro das CTA e aerovias; \nD; Abaixo do FL145 (inclusive) dentro das CTA e aerovias; \nG; Abaixo do FL245 (inclusive) fora das CTA, aerovias",2022-12-29Z,2023-01-26Z,"131","0","0","131",36.63977631804287,28.77623927078758,3.604,-33.504
"823",1517.000000000000000,2022-12-29Z,SECTOR,SBAO_S2,SB,SECTOR 2C,SAM,STD,FL,SFC,FL,FT,H24,999.000000000000000,0.000000000000000,NO,"SETOR 2C; FIR ATL�NTICO","(1) SETOR 1A
(2) SETOR 1B
(3) SETOR 1C
(4) SETOR 2A
(5) SETOR 2B
(6) SETOR 2C
(7) SETOR 3B
(8) SETOR 3C

D-VOLMET",SBAO,"CLASSE DE  ESPA�O A�REO: \nA; Acima do FL245 (exclusive); \nA; Entre os FL145 (exclusive) e FL245 (inclusive) dentro das CTA e aerovias; \nD; Abaixo do FL145 (inclusive) dentro das CTA e aerovias; \nG; Abaixo do FL245 (inclusive) fora das CTA, aerovias",2022-12-29Z,2023-01-26Z,"132","0","0","132",37.44873145422504,28.82406583797927,4.312,-33.114
"823",1517.000000000000000,2022-12-29Z,SECTOR,SBAO_S2,SB,SECTOR 2C,SAM,STD,FL,SFC,FL,FT,H24,999.000000000000000,0.000000000000000,NO,"SETOR 2C; FIR ATL�NTICO","(1) SETOR 1A
(2) SETOR 1B
(3) SETOR 1C
(4) SETOR 2A
(5) SETOR 2B
(6) SETOR 2C
(7) SETOR 3B
(8) SETOR 3C

D-VOLMET",SBAO,"CLASSE DE  ESPA�O A�REO: \nA; Acima do FL245 (exclusive); \nA; Entre os FL145 (exclusive) e FL245 (inclusive) dentro das CTA e aerovias; \nD; Abaixo do FL145 (inclusive) dentro das CTA e aerovias; \nG; Abaixo do FL245 (inclusive) fora das CTA, aerovias",2022-12-29Z,2023-01-26Z,"133","0","0","133",38.25784795493438,28.88055812748693,5.021,-32.724
"823",1517.000000000000000,2022-12-29Z,SECTOR,SBAO_S2,SB,SECTOR 2C,SAM,STD,FL,SFC,FL,FT,H24,999.000000000000000,0.000000000000000,NO,"SETOR 2C; FIR ATL�NTICO","(1) SETOR 1A
(2) SETOR 1B
(3) SETOR 1C
(4) SETOR 2A
(5) SETOR 2B
(6) SETOR 2C
(7) SETOR 3B
(8) SETOR 3C

D-VOLMET",SBAO,"CLASSE DE  ESPA�O A�REO: \nA; Acima do FL245 (exclusive); \nA; Entre os FL145 (exclusive) e FL245 (inclusive) dentro das CTA e aerovias; \nD; Abaixo do FL145 (inclusive) dentro das CTA e aerovias; \nG; Abaixo do FL245 (inclusive) fora das CTA, aerovias",2022-12-29Z,2023-01-26Z,"134","0","0","134",39.06715363081640,77.53188985380658,5.730,-32.333
"823",1517.000000000000000,2022-12-29Z,SECTOR,SBAO_S2,SB,SECTOR 2C,SAM,STD,FL,SFC,FL,FT,H24,999.000000000000000,0.000000000000000,NO,"SETOR 2C; FIR ATL�NTICO","(1) SETOR 1A
(2) SETOR 1B
(3) SETOR 1C
(4) SETOR 2A
(5) SETOR 2B
(6) SETOR 2C
(7) SETOR 3B
(8) SETOR 3C

D-VOLMET",SBAO,"CLASSE DE  ESPA�O A�REO: \nA; Acima do FL245 (exclusive); \nA; Entre os FL145 (exclusive) e FL245 (inclusive) dentro das CTA e aerovias; \nD; Abaixo do FL145 (inclusive) dentro das CTA e aerovias; \nG; Abaixo do FL245 (inclusive) fora das CTA, aerovias",2022-12-29Z,2023-01-26Z,"135","0","0","135",39.15402727073992,126.15751061229709,5.678,-32.262
"823",1517.000000000000000,2022-12-29Z,SECTOR,SBAO_S2,SB,SECTOR 2C,SAM,STD,FL,SFC,FL,FT,H24,999.000000000000000,0.000000000000000,NO,"SETOR 2C; FIR ATL�NTICO","(1) SETOR 1A
(2) SETOR 1B
(3) SETOR 1C
(4) SETOR 2A
(5) SETOR 2B
(6) SETOR 2C
(7) SETOR 3B
(8) SETOR 3C

D-VOLMET",SBAO,"CLASSE DE  ESPA�O A�REO: \nA; Acima do FL245 (exclusive); \nA; Entre os FL145 (exclusive) e FL245 (inclusive) dentro das CTA e aerovias; \nD; Abaixo do FL145 (inclusive) dentro das CTA e aerovias; \nG; Abaixo do FL245 (inclusive) fora das CTA, aerovias",2022-12-29Z,2023-01-26Z,"136","0","0","136",39.24089597081432,126.16687412789958,5.627,-32.192
"823",1517.000000000000000,2022-12-29Z,SECTOR,SBAO_S2,SB,SECTOR 2C,SAM,STD,FL,SFC,FL,FT,H24,999.000000000000000,0.000000000000000,NO,"SETOR 2C; FIR ATL�NTICO","(1) SETOR 1A
(2) SETOR 1B
(3) SETOR 1C
(4) SETOR 2A
(5) SETOR 2B
(6) SETOR 2C
(7) SETOR 3B
(8) SETOR 3C

D-VOLMET",SBAO,"CLASSE DE  ESPA�O A�REO: \nA; Acima do FL245 (exclusive); \nA; Entre os FL145 (exclusive) e FL245 (inclusive) dentro das CTA e aerovias; \nD; Abaixo do FL145 (inclusive) dentro das CTA e aerovias; \nG; Abaixo do FL245 (inclusive) fora das CTA, aerovias",2022-12-29Z,2023-01-26Z,"137","0","0","137",39.32775979328204,126.17614866853145,5.576,-32.122
"823",1517.000000000000000,2022-12-29Z,SECTOR,SBAO_S2,SB,SECTOR 2C,SAM,STD,FL,SFC,FL,FT,H24,999.000000000000000,0.000000000000000,NO,"SETOR 2C; FIR ATL�NTICO","(1) SETOR 1A
(2) SETOR 1B
(3) SETOR 1C
(4) SETOR 2A
(5) SETOR 2B
(6) SETOR 2C
(7) SETOR 3B
(8) SETOR 3C

D-VOLMET",SBAO,"CLASSE DE  ESPA�O A�REO: \nA; Acima do FL245 (exclusive); \nA; Entre os FL145 (exclusive) e FL245 (inclusive) dentro das CTA e aerovias; \nD; Abaixo do FL145 (inclusive) dentro das CTA e aerovias; \nG; Abaixo do FL245 (inclusive) fora das CTA, aerovias",2022-12-29Z,2023-01-26Z,"138","0","0","138",39.41461876585562,126.18533881214445,5.524,-32.052
"823",1517.000000000000000,2022-12-29Z,SECTOR,SBAO_S2,SB,SECTOR 2C,SAM,STD,FL,SFC,FL,FT,H24,999.000000000000000,0.000000000000000,NO,"SETOR 2C; FIR ATL�NTICO","(1) SETOR 1A
(2) SETOR 1B
(3) SETOR 1C
(4) SETOR 2A
(5) SETOR 2B
(6) SETOR 2C
(7) SETOR 3B
(8) SETOR 3C

D-VOLMET",SBAO,"CLASSE DE  ESPA�O A�REO: \nA; Acima do FL245 (exclusive); \nA; Entre os FL145 (exclusive) e FL245 (inclusive) dentro das CTA e aerovias; \nD; Abaixo do FL145 (inclusive) dentro das CTA e aerovias; \nG; Abaixo do FL245 (inclusive) fora das CTA, aerovias",2022-12-29Z,2023-01-26Z,"139","0","0","139",39.50147294847363,126.19444063695150,5.473,-31.982
"823",1517.000000000000000,2022-12-29Z,SECTOR,SBAO_S2,SB,SECTOR 2C,SAM,STD,FL,SFC,FL,FT,H24,999.000000000000000,0.000000000000000,NO,"SETOR 2C; FIR ATL�NTICO","(1) SETOR 1A
(2) SETOR 1B
(3) SETOR 1C
(4) SETOR 2A
(5) SETOR 2B
(6) SETOR 2C
(7) SETOR 3B
(8) SETOR 3C

D-VOLMET",SBAO,"CLASSE DE  ESPA�O A�REO: \nA; Acima do FL245 (exclusive); \nA; Entre os FL145 (exclusive) e FL245 (inclusive) dentro das CTA e aerovias; \nD; Abaixo do FL145 (inclusive) dentro das CTA e aerovias; \nG; Abaixo do FL245 (inclusive) fora das CTA, aerovias",2022-12-29Z,2023-01-26Z,"140","0","0","140",39.58832238486789,126.20346261886252,5.422,-31.912
"823",1517.000000000000000,2022-12-29Z,SECTOR,SBAO_S2,SB,SECTOR 2C,SAM,STD,FL,SFC,FL,FT,H24,999.000000000000000,0.000000000000000,NO,"SETOR 2C; FIR ATL�NTICO","(1) SETOR 1A
(2) SETOR 1B
(3) SETOR 1C
(4) SETOR 2A
(5) SETOR 2B
(6) SETOR 2C
(7) SETOR 3B
(8) SETOR 3C

D-VOLMET",SBAO,"CLASSE DE  ESPA�O A�REO: \nA; Acima do FL245 (exclusive); \nA; Entre os FL145 (exclusive) e FL245 (inclusive) dentro das CTA e aerovias; \nD; Abaixo do FL145 (inclusive) dentro das CTA e aerovias; \nG; Abaixo do FL245 (inclusive) fora das CTA, aerovias",2022-12-29Z,2023-01-26Z,"141","0","0","141",39.67516711654756,126.21239817160701,5.371,-31.842
"823",1517.000000000000000,2022-12-29Z,SECTOR,SBAO_S2,SB,SECTOR 2C,SAM,STD,FL,SFC,FL,FT,H24,999.000000000000000,0.000000000000000,NO,"SETOR 2C; FIR ATL�NTICO","(1) SETOR 1A
(2) SETOR 1B
(3) SETOR 1C
(4) SETOR 2A
(5) SETOR 2B
(6) SETOR 2C
(7) SETOR 3B
(8) SETOR 3C

D-VOLMET",SBAO,"CLASSE DE  ESPA�O A�REO: \nA; Acima do FL245 (exclusive); \nA; Entre os FL145 (exclusive) e FL245 (inclusive) dentro das CTA e aerovias; \nD; Abaixo do FL145 (inclusive) dentro das CTA e aerovias; \nG; Abaixo do FL245 (inclusive) fora das CTA, aerovias",2022-12-29Z,2023-01-26Z,"142","0","0","142",39.76200719735454,126.22124726796568,5.319,-31.772
"823",1517.000000000000000,2022-12-29Z,SECTOR,SBAO_S2,SB,SECTOR 2C,SAM,STD,FL,SFC,FL,FT,H24,999.000000000000000,0.000000000000000,NO,"SETOR 2C; FIR ATL�NTICO","(1) SETOR 1A
(2) SETOR 1B
(3) SETOR 1C
(4) SETOR 2A
(5) SETOR 2B
(6) SETOR 2C
(7) SETOR 3B
(8) SETOR 3C

D-VOLMET",SBAO,"CLASSE DE  ESPA�O A�REO: \nA; Acima do FL245 (exclusive); \nA; Entre os FL145 (exclusive) e FL245 (inclusive) dentro das CTA e aerovias; \nD; Abaixo do FL145 (inclusive) dentro das CTA e aerovias; \nG; Abaixo do FL245 (inclusive) fora das CTA, aerovias",2022-12-29Z,2023-01-26Z,"143","0","0","143",39.84884266867996,126.23001182871114,5.268,-31.702
"823",1517.000000000000000,2022-12-29Z,SECTOR,SBAO_S2,SB,SECTOR 2C,SAM,STD,FL,SFC,FL,FT,H24,999.000000000000000,0.000000000000000,NO,"SETOR 2C; FIR ATL�NTICO","(1) SETOR 1A
(2) SETOR 1B
(3) SETOR 1C
(4) SETOR 2A
(5) SETOR 2B
(6) SETOR 2C
(7) SETOR 3B
(8) SETOR 3C

D-VOLMET",SBAO,"CLASSE DE  ESPA�O A�REO: \nA; Acima do FL245 (exclusive); \nA; Entre os FL145 (exclusive) e FL245 (inclusive) dentro das CTA e aerovias; \nD; Abaixo do FL145 (inclusive) dentro das CTA e aerovias; \nG; Abaixo do FL245 (inclusive) fora das CTA, aerovias",2022-12-29Z,2023-01-26Z,"144","0","0","144",39.93567357617231,126.41266189211720,5.217,-31.632
"823",1517.000000000000000,2022-12-29Z,SECTOR,SBAO_S2,SB,SECTOR 2C,SAM,STD,FL,SFC,FL,FT,H24,999.000000000000000,0.000000000000000,NO,"SETOR 2C; FIR ATL�NTICO","(1) SETOR 1A
(2) SETOR 1B
(3) SETOR 1C
(4) SETOR 2A
(5) SETOR 2B
(6) SETOR 2C
(7) SETOR 3B
(8) SETOR 3C

D-VOLMET",SBAO,"CLASSE DE  ESPA�O A�REO: \nA; Acima do FL245 (exclusive); \nA; Entre os FL145 (exclusive) e FL245 (inclusive) dentro das CTA e aerovias; \nD; Abaixo do FL145 (inclusive) dentro das CTA e aerovias; \nG; Abaixo do FL245 (inclusive) fora das CTA, aerovias",2022-12-29Z,2023-01-26Z,"145","0","0","145",40.03871844336989,126.59601706820348,5.155,-31.549
"823",1517.000000000000000,2022-12-29Z,SECTOR,SBAO_S2,SB,SECTOR 2C,SAM,STD,FL,SFC,FL,FT,H24,999.000000000000000,0.000000000000000,NO,"SETOR 2C; FIR ATL�NTICO","(1) SETOR 1A
(2) SETOR 1B
(3) SETOR 1C
(4) SETOR 2A
(5) SETOR 2B
(6) SETOR 2C
(7) SETOR 3B
(8) SETOR 3C

D-VOLMET",SBAO,"CLASSE DE  ESPA�O A�REO: \nA; Acima do FL245 (exclusive); \nA; Entre os FL145 (exclusive) e FL245 (inclusive) dentro das CTA e aerovias; \nD; Abaixo do FL145 (inclusive) dentro das CTA e aerovias; \nG; Abaixo do FL245 (inclusive) fora das CTA, aerovias",2022-12-29Z,2023-01-26Z,"146","0","0","146",40.14175703143006,126.60608340705653,5.094,-31.466
"823",1517.000000000000000,2022-12-29Z,SECTOR,SBAO_S2,SB,SECTOR 2C,SAM,STD,FL,SFC,FL,FT,H24,999.000000000000000,0.000000000000000,NO,"SETOR 2C; FIR ATL�NTICO","(1) SETOR 1A
(2) SETOR 1B
(3) SETOR 1C
(4) SETOR 2A
(5) SETOR 2B
(6) SETOR 2C
(7) SETOR 3B
(8) SETOR 3C

D-VOLMET",SBAO,"CLASSE DE  ESPA�O A�REO: \nA; Acima do FL245 (exclusive); \nA; Entre os FL145 (exclusive) e FL245 (inclusive) dentro das CTA e aerovias; \nD; Abaixo do FL145 (inclusive) dentro das CTA e aerovias; \nG; Abaixo do FL245 (inclusive) fora das CTA, aerovias",2022-12-29Z,2023-01-26Z,"147","0","0","147",40.24478942658349,126.61602768413036,5.032,-31.384
"823",1517.000000000000000,2022-12-29Z,SECTOR,SBAO_S2,SB,SECTOR 2C,SAM,STD,FL,SFC,FL,FT,H24,999.000000000000000,0.000000000000000,NO,"SETOR 2C; FIR ATL�NTICO","(1) SETOR 1A
(2) SETOR 1B
(3) SETOR 1C
(4) SETOR 2A
(5) SETOR 2B
(6) SETOR 2C
(7) SETOR 3B
(8) SETOR 3C

D-VOLMET",SBAO,"CLASSE DE  ESPA�O A�REO: \nA; Acima do FL245 (exclusive); \nA; Entre os FL145 (exclusive) e FL245 (inclusive) dentro das CTA e aerovias; \nD; Abaixo do FL145 (inclusive) dentro das CTA e aerovias; \nG; Abaixo do FL245 (inclusive) fora das CTA, aerovias",2022-12-29Z,2023-01-26Z,"148","0","0","148",40.34781569292712,126.62585374571799,4.971,-31.301
"823",1517.000000000000000,2022-12-29Z,SECTOR,SBAO_S2,SB,SECTOR 2C,SAM,STD,FL,SFC,FL,FT,H24,999.000000000000000,0.000000000000000,NO,"SETOR 2C; FIR ATL�NTICO","(1) SETOR 1A
(2) SETOR 1B
(3) SETOR 1C
(4) SETOR 2A
(5) SETOR 2B
(6) SETOR 2C
(7) SETOR 3B
(8) SETOR 3C

D-VOLMET",SBAO,"CLASSE DE  ESPA�O A�REO: \nA; Acima do FL245 (exclusive); \nA; Entre os FL145 (exclusive) e FL245 (inclusive) dentro das CTA e aerovias; \nD; Abaixo do FL145 (inclusive) dentro das CTA e aerovias; \nG; Abaixo do FL245 (inclusive) fora das CTA, aerovias",2022-12-29Z,2023-01-26Z,"149","0","0","149",40.45083591440279,126.63555765968385,4.909,-31.218
"823",1517.000000000000000,2022-12-29Z,SECTOR,SBAO_S2,SB,SECTOR 2C,SAM,STD,FL,SFC,FL,FT,H24,999.000000000000000,0.000000000000000,NO,"SETOR 2C; FIR ATL�NTICO","(1) SETOR 1A
(2) SETOR 1B
(3) SETOR 1C
(4) SETOR 2A
(5) SETOR 2B
(6) SETOR 2C
(7) SETOR 3B
(8) SETOR 3C

D-VOLMET",SBAO,"CLASSE DE  ESPA�O A�REO: \nA; Acima do FL245 (exclusive); \nA; Entre os FL145 (exclusive) e FL245 (inclusive) dentro das CTA e aerovias; \nD; Abaixo do FL145 (inclusive) dentro das CTA e aerovias; \nG; Abaixo do FL245 (inclusive) fora das CTA, aerovias",2022-12-29Z,2023-01-26Z,"150","0","0","150",40.55385015694195,126.64513829435870,4.848,-31.135
"823",1517.000000000000000,2022-12-29Z,SECTOR,SBAO_S2,SB,SECTOR 2C,SAM,STD,FL,SFC,FL,FT,H24,999.000000000000000,0.000000000000000,NO,"SETOR 2C; FIR ATL�NTICO","(1) SETOR 1A
(2) SETOR 1B
(3) SETOR 1C
(4) SETOR 2A
(5) SETOR 2B
(6) SETOR 2C
(7) SETOR 3B
(8) SETOR 3C

D-VOLMET",SBAO,"CLASSE DE  ESPA�O A�REO: \nA; Acima do FL245 (exclusive); \nA; Entre os FL145 (exclusive) e FL245 (inclusive) dentro das CTA e aerovias; \nD; Abaixo do FL145 (inclusive) dentro das CTA e aerovias; \nG; Abaixo do FL245 (inclusive) fora das CTA, aerovias",2022-12-29Z,2023-01-26Z,"151","0","0","151",40.65685852628145,126.65460058806639,4.786,-31.053
"823",1517.000000000000000,2022-12-29Z,SECTOR,SBAO_S2,SB,SECTOR 2C,SAM,STD,FL,SFC,FL,FT,H24,999.000000000000000,0.000000000000000,NO,"SETOR 2C; FIR ATL�NTICO","(1) SETOR 1A
(2) SETOR 1B
(3) SETOR 1C
(4) SETOR 2A
(5) SETOR 2B
(6) SETOR 2C
(7) SETOR 3B
(8) SETOR 3C

D-VOLMET",SBAO,"CLASSE DE  ESPA�O A�REO: \nA; Acima do FL245 (exclusive); \nA; Entre os FL145 (exclusive) e FL245 (inclusive) dentro das CTA e aerovias; \nD; Abaixo do FL145 (inclusive) dentro das CTA e aerovias; \nG; Abaixo do FL245 (inclusive) fora das CTA, aerovias",2022-12-29Z,2023-01-26Z,"152","0","0","152",40.75986106405994,126.66394060566381,4.725,-30.970
"823",1517.000000000000000,2022-12-29Z,SECTOR,SBAO_S2,SB,SECTOR 2C,SAM,STD,FL,SFC,FL,FT,H24,999.000000000000000,0.000000000000000,NO,"SETOR 2C; FIR ATL�NTICO","(1) SETOR 1A
(2) SETOR 1B
(3) SETOR 1C
(4) SETOR 2A
(5) SETOR 2B
(6) SETOR 2C
(7) SETOR 3B
(8) SETOR 3C

D-VOLMET",SBAO,"CLASSE DE  ESPA�O A�REO: \nA; Acima do FL245 (exclusive); \nA; Entre os FL145 (exclusive) e FL245 (inclusive) dentro das CTA e aerovias; \nD; Abaixo do FL145 (inclusive) dentro das CTA e aerovias; \nG; Abaixo do FL245 (inclusive) fora das CTA, aerovias",2022-12-29Z,2023-01-26Z,"153","0","0","153",40.86285787785204,126.67315887909255,4.663,-30.888
"823",1517.000000000000000,2022-12-29Z,SECTOR,SBAO_S2,SB,SECTOR 2C,SAM,STD,FL,SFC,FL,FT,H24,999.000000000000000,0.000000000000000,NO,"SETOR 2C; FIR ATL�NTICO","(1) SETOR 1A
(2) SETOR 1B
(3) SETOR 1C
(4) SETOR 2A
(5) SETOR 2B
(6) SETOR 2C
(7) SETOR 3B
(8) SETOR 3C

D-VOLMET",SBAO,"CLASSE DE  ESPA�O A�REO: \nA; Acima do FL245 (exclusive); \nA; Entre os FL145 (exclusive) e FL245 (inclusive) dentro das CTA e aerovias; \nD; Abaixo do FL145 (inclusive) dentro das CTA e aerovias; \nG; Abaixo do FL245 (inclusive) fora das CTA, aerovias",2022-12-29Z,2023-01-26Z,"154","0","0","154",40.96584902307555,126.43026892633408,4.602,-30.805
"823",1517.000000000000000,2022-12-29Z,SECTOR,SBAO_S2,SB,SECTOR 2C,SAM,STD,FL,SFC,FL,FT,H24,999.000000000000000,0.000000000000000,NO,"SETOR 2C; FIR ATL�NTICO","(1) SETOR 1A
(2) SETOR 1B
(3) SETOR 1C
(4) SETOR 2A
(5) SETOR 2B
(6) SETOR 2C
(7) SETOR 3B
(8) SETOR 3C

D-VOLMET",SBAO,"CLASSE DE  ESPA�O A�REO: \nA; Acima do FL245 (exclusive); \nA; Entre os FL145 (exclusive) e FL245 (inclusive) dentro das CTA e aerovias; \nD; Abaixo do FL145 (inclusive) dentro das CTA e aerovias; \nG; Abaixo do FL245 (inclusive) fora das CTA, aerovias",2022-12-29Z,2023-01-26Z,"155","0","0","155",41.06689522877332,126.18717678557410,4.542,-30.723
"823",1517.000000000000000,2022-12-29Z,SECTOR,SBAO_S2,SB,SECTOR 2C,SAM,STD,FL,SFC,FL,FT,H24,999.000000000000000,0.000000000000000,NO,"SETOR 2C; FIR ATL�NTICO","(1) SETOR 1A
(2) SETOR 1B
(3) SETOR 1C
(4) SETOR 2A
(5) SETOR 2B
(6) SETOR 2C
(7) SETOR 3B
(8) SETOR 3C

D-VOLMET",SBAO,"CLASSE DE  ESPA�O A�REO: \nA; Acima do FL245 (exclusive); \nA; Entre os FL145 (exclusive) e FL245 (inclusive) dentro das CTA e aerovias; \nD; Abaixo do FL145 (inclusive) dentro das CTA e aerovias; \nG; Abaixo do FL245 (inclusive) fora das CTA, aerovias",2022-12-29Z,2023-01-26Z,"156","0","0","156",41.16793611412246,126.19587290748812,4.483,-30.642
"823",1517.000000000000000,2022-12-29Z,SECTOR,SBAO_S2,SB,SECTOR 2C,SAM,STD,FL,SFC,FL,FT,H24,999.000000000000000,0.000000000000000,NO,"SETOR 2C; FIR ATL�NTICO","(1) SETOR 1A
(2) SETOR 1B
(3) SETOR 1C
(4) SETOR 2A
(5) SETOR 2B
(6) SETOR 2C
(7) SETOR 3B
(8) SETOR 3C

D-VOLMET",SBAO,"CLASSE DE  ESPA�O A�REO: \nA; Acima do FL245 (exclusive); \nA; Entre os FL145 (exclusive) e FL245 (inclusive) dentro das CTA e aerovias; \nD; Abaixo do FL145 (inclusive) dentro das CTA e aerovias; \nG; Abaixo do FL245 (inclusive) fora das CTA, aerovias",2022-12-29Z,2023-01-26Z,"157","0","0","157",41.26897176393125,126.20445473191711,4.423,-30.560
"823",1517.000000000000000,2022-12-29Z,SECTOR,SBAO_S2,SB,SECTOR 2C,SAM,STD,FL,SFC,FL,FT,H24,999.000000000000000,0.000000000000000,NO,"SETOR 2C; FIR ATL�NTICO","(1) SETOR 1A
(2) SETOR 1B
(3) SETOR 1C
(4) SETOR 2A
(5) SETOR 2B
(6) SETOR 2C
(7) SETOR 3B
(8) SETOR 3C

D-VOLMET",SBAO,"CLASSE DE  ESPA�O A�REO: \nA; Acima do FL245 (exclusive); \nA; Entre os FL145 (exclusive) e FL245 (inclusive) dentro das CTA e aerovias; \nD; Abaixo do FL145 (inclusive) dentro das CTA e aerovias; \nG; Abaixo do FL245 (inclusive) fora das CTA, aerovias",2022-12-29Z,2023-01-26Z,"158","0","0","158",41.37000224677636,126.21292160867579,4.363,-30.479
"823",1517.000000000000000,2022-12-29Z,SECTOR,SBAO_S2,SB,SECTOR 2C,SAM,STD,FL,SFC,FL,FT,H24,999.000000000000000,0.000000000000000,NO,"SETOR 2C; FIR ATL�NTICO","(1) SETOR 1A
(2) SETOR 1B
(3) SETOR 1C
(4) SETOR 2A
(5) SETOR 2B
(6) SETOR 2C
(7) SETOR 3B
(8) SETOR 3C

D-VOLMET",SBAO,"CLASSE DE  ESPA�O A�REO: \nA; Acima do FL245 (exclusive); \nA; Entre os FL145 (exclusive) e FL245 (inclusive) dentro das CTA e aerovias; \nD; Abaixo do FL145 (inclusive) dentro das CTA e aerovias; \nG; Abaixo do FL245 (inclusive) fora das CTA, aerovias",2022-12-29Z,2023-01-26Z,"159","0","0","159",41.47102763330614,126.22126953966918,4.304,-30.397
"823",1517.000000000000000,2022-12-29Z,SECTOR,SBAO_S2,SB,SECTOR 2C,SAM,STD,FL,SFC,FL,FT,H24,999.000000000000000,0.000000000000000,NO,"SETOR 2C; FIR ATL�NTICO","(1) SETOR 1A
(2) SETOR 1B
(3) SETOR 1C
(4) SETOR 2A
(5) SETOR 2B
(6) SETOR 2C
(7) SETOR 3B
(8) SETOR 3C

D-VOLMET",SBAO,"CLASSE DE  ESPA�O A�REO: \nA; Acima do FL245 (exclusive); \nA; Entre os FL145 (exclusive) e FL245 (inclusive) dentro das CTA e aerovias; \nD; Abaixo do FL145 (inclusive) dentro das CTA e aerovias; \nG; Abaixo do FL245 (inclusive) fora das CTA, aerovias",2022-12-29Z,2023-01-26Z,"160","0","0","160",41.57204799407625,126.22950474109889,4.244,-30.316
"823",1517.000000000000000,2022-12-29Z,SECTOR,SBAO_S2,SB,SECTOR 2C,SAM,STD,FL,SFC,FL,FT,H24,999.000000000000000,0.000000000000000,NO,"SETOR 2C; FIR ATL�NTICO","(1) SETOR 1A
(2) SETOR 1B
(3) SETOR 1C
(4) SETOR 2A
(5) SETOR 2B
(6) SETOR 2C
(7) SETOR 3B
(8) SETOR 3C

D-VOLMET",SBAO,"CLASSE DE  ESPA�O A�REO: \nA; Acima do FL245 (exclusive); \nA; Entre os FL145 (exclusive) e FL245 (inclusive) dentro das CTA e aerovias; \nD; Abaixo do FL145 (inclusive) dentro das CTA e aerovias; \nG; Abaixo do FL245 (inclusive) fora das CTA, aerovias",2022-12-29Z,2023-01-26Z,"161","0","0","161",41.67306340330647,126.23762656785762,4.184,-30.234
"823",1517.000000000000000,2022-12-29Z,SECTOR,SBAO_S2,SB,SECTOR 2C,SAM,STD,FL,SFC,FL,FT,H24,999.000000000000000,0.000000000000000,NO,"SETOR 2C; FIR ATL�NTICO","(1) SETOR 1A
(2) SETOR 1B
(3) SETOR 1C
(4) SETOR 2A
(5) SETOR 2B
(6) SETOR 2C
(7) SETOR 3B
(8) SETOR 3C

D-VOLMET",SBAO,"CLASSE DE  ESPA�O A�REO: \nA; Acima do FL245 (exclusive); \nA; Entre os FL145 (exclusive) e FL245 (inclusive) dentro das CTA e aerovias; \nD; Abaixo do FL145 (inclusive) dentro das CTA e aerovias; \nG; Abaixo do FL245 (inclusive) fora das CTA, aerovias",2022-12-29Z,2023-01-26Z,"162","0","0","162",41.77407391740002,126.24562995612227,4.124,-30.153
"823",1517.000000000000000,2022-12-29Z,SECTOR,SBAO_S2,SB,SECTOR 2C,SAM,STD,FL,SFC,FL,FT,H24,999.000000000000000,0.000000000000000,NO,"SETOR 2C; FIR ATL�NTICO","(1) SETOR 1A
(2) SETOR 1B
(3) SETOR 1C
(4) SETOR 2A
(5) SETOR 2B
(6) SETOR 2C
(7) SETOR 3B
(8) SETOR 3C

D-VOLMET",SBAO,"CLASSE DE  ESPA�O A�REO: \nA; Acima do FL245 (exclusive); \nA; Entre os FL145 (exclusive) e FL245 (inclusive) dentro das CTA e aerovias; \nD; Abaixo do FL145 (inclusive) dentro das CTA e aerovias; \nG; Abaixo do FL245 (inclusive) fora das CTA, aerovias",2022-12-29Z,2023-01-26Z,"163","0","0","163",41.87507963460292,126.25352051435380,4.065,-30.071
"823",1517.000000000000000,2022-12-29Z,SECTOR,SBAO_S2,SB,SECTOR 2C,SAM,STD,FL,SFC,FL,FT,H24,999.000000000000000,0.000000000000000,NO,"SETOR 2C; FIR ATL�NTICO","(1) SETOR 1A
(2) SETOR 1B
(3) SETOR 1C
(4) SETOR 2A
(5) SETOR 2B
(6) SETOR 2C
(7) SETOR 3B
(8) SETOR 3C

D-VOLMET",SBAO,"CLASSE DE  ESPA�O A�REO: \nA; Acima do FL245 (exclusive); \nA; Entre os FL145 (exclusive) e FL245 (inclusive) dentro das CTA e aerovias; \nD; Abaixo do FL145 (inclusive) dentro das CTA e aerovias; \nG; Abaixo do FL245 (inclusive) fora das CTA, aerovias",2022-12-29Z,2023-01-26Z,"164","0","0","164",41.97608060092870,126.35303981907781,4.005,-29.990
"823",1517.000000000000000,2022-12-29Z,SECTOR,SBAO_S2,SB,SECTOR 2C,SAM,STD,FL,SFC,FL,FT,H24,999.000000000000000,0.000000000000000,NO,"SETOR 2C; FIR ATL�NTICO","(1) SETOR 1A
(2) SETOR 1B
(3) SETOR 1C
(4) SETOR 2A
(5) SETOR 2B
(6) SETOR 2C
(7) SETOR 3B
(8) SETOR 3C

D-VOLMET",SBAO,"CLASSE DE  ESPA�O A�REO: \nA; Acima do FL245 (exclusive); \nA; Entre os FL145 (exclusive) e FL245 (inclusive) dentro das CTA e aerovias; \nD; Abaixo do FL145 (inclusive) dentro das CTA e aerovias; \nG; Abaixo do FL245 (inclusive) fora das CTA, aerovias",2022-12-29Z,2023-01-26Z,"165","0","0","165",42.07634246081992,126.45241436015964,3.945,-29.909
"823",1517.000000000000000,2022-12-29Z,SECTOR,SBAO_S2,SB,SECTOR 2C,SAM,STD,FL,SFC,FL,FT,H24,999.000000000000000,0.000000000000000,NO,"SETOR 2C; FIR ATL�NTICO","(1) SETOR 1A
(2) SETOR 1B
(3) SETOR 1C
(4) SETOR 2A
(5) SETOR 2B
(6) SETOR 2C
(7) SETOR 3B
(8) SETOR 3C

D-VOLMET",SBAO,"CLASSE DE  ESPA�O A�REO: \nA; Acima do FL245 (exclusive); \nA; Entre os FL145 (exclusive) e FL245 (inclusive) dentro das CTA e aerovias; \nD; Abaixo do FL145 (inclusive) dentro das CTA e aerovias; \nG; Abaixo do FL245 (inclusive) fora das CTA, aerovias",2022-12-29Z,2023-01-26Z,"166","0","0","166",42.17659979037155,126.45990476498525,3.886,-29.829
"823",1517.000000000000000,2022-12-29Z,SECTOR,SBAO_S2,SB,SECTOR 2C,SAM,STD,FL,SFC,FL,FT,H24,999.000000000000000,0.000000000000000,NO,"SETOR 2C; FIR ATL�NTICO","(1) SETOR 1A
(2) SETOR 1B
(3) SETOR 1C
(4) SETOR 2A
(5) SETOR 2B
(6) SETOR 2C
(7) SETOR 3B
(8) SETOR 3C

D-VOLMET",SBAO,"CLASSE DE  ESPA�O A�REO: \nA; Acima do FL245 (exclusive); \nA; Entre os FL145 (exclusive) e FL245 (inclusive) dentro das CTA e aerovias; \nD; Abaixo do FL145 (inclusive) dentro das CTA e aerovias; \nG; Abaixo do FL245 (inclusive) fora das CTA, aerovias",2022-12-29Z,2023-01-26Z,"167","0","0","167",42.27685265672518,126.46727954214842,3.826,-29.748
"823",1517.000000000000000,2022-12-29Z,SECTOR,SBAO_S2,SB,SECTOR 2C,SAM,STD,FL,SFC,FL,FT,H24,999.000000000000000,0.000000000000000,NO,"SETOR 2C; FIR ATL�NTICO","(1) SETOR 1A
(2) SETOR 1B
(3) SETOR 1C
(4) SETOR 2A
(5) SETOR 2B
(6) SETOR 2C
(7) SETOR 3B
(8) SETOR 3C

D-VOLMET",SBAO,"CLASSE DE  ESPA�O A�REO: \nA; Acima do FL245 (exclusive); \nA; Entre os FL145 (exclusive) e FL245 (inclusive) dentro das CTA e aerovias; \nD; Abaixo do FL145 (inclusive) dentro das CTA e aerovias; \nG; Abaixo do FL245 (inclusive) fora das CTA, aerovias",2022-12-29Z,2023-01-26Z,"168","0","0","168",42.37710114302891,126.47453806173186,3.767,-29.667
"823",1517.000000000000000,2022-12-29Z,SECTOR,SBAO_S2,SB,SECTOR 2C,SAM,STD,FL,SFC,FL,FT,H24,999.000000000000000,0.000000000000000,NO,"SETOR 2C; FIR ATL�NTICO","(1) SETOR 1A
(2) SETOR 1B
(3) SETOR 1C
(4) SETOR 2A
(5) SETOR 2B
(6) SETOR 2C
(7) SETOR 3B
(8) SETOR 3C

D-VOLMET",SBAO,"CLASSE DE  ESPA�O A�REO: \nA; Acima do FL245 (exclusive); \nA; Entre os FL145 (exclusive) e FL245 (inclusive) dentro das CTA e aerovias; \nD; Abaixo do FL145 (inclusive) dentro das CTA e aerovias; \nG; Abaixo do FL245 (inclusive) fora das CTA, aerovias",2022-12-29Z,2023-01-26Z,"169","0","0","169",42.47734530228314,126.48168199208516,3.707,-29.587
"823",1517.000000000000000,2022-12-29Z,SECTOR,SBAO_S2,SB,SECTOR 2C,SAM,STD,FL,SFC,FL,FT,H24,999.000000000000000,0.000000000000000,NO,"SETOR 2C; FIR ATL�NTICO","(1) SETOR 1A
(2) SETOR 1B
(3) SETOR 1C
(4) SETOR 2A
(5) SETOR 2B
(6) SETOR 2C
(7) SETOR 3B
(8) SETOR 3C

D-VOLMET",SBAO,"CLASSE DE  ESPA�O A�REO: \nA; Acima do FL245 (exclusive); \nA; Entre os FL145 (exclusive) e FL245 (inclusive) dentro das CTA e aerovias; \nD; Abaixo do FL145 (inclusive) dentro das CTA e aerovias; \nG; Abaixo do FL245 (inclusive) fora das CTA, aerovias",2022-12-29Z,2023-01-26Z,"170","0","0","170",42.57758520943956,126.48871420144050,3.647,-29.506
"823",1517.000000000000000,2022-12-29Z,SECTOR,SBAO_S2,SB,SECTOR 2C,SAM,STD,FL,SFC,FL,FT,H24,999.000000000000000,0.000000000000000,NO,"SETOR 2C; FIR ATL�NTICO","(1) SETOR 1A
(2) SETOR 1B
(3) SETOR 1C
(4) SETOR 2A
(5) SETOR 2B
(6) SETOR 2C
(7) SETOR 3B
(8) SETOR 3C

D-VOLMET",SBAO,"CLASSE DE  ESPA�O A�REO: \nA; Acima do FL245 (exclusive); \nA; Entre os FL145 (exclusive) e FL245 (inclusive) dentro das CTA e aerovias; \nD; Abaixo do FL145 (inclusive) dentro das CTA e aerovias; \nG; Abaixo do FL245 (inclusive) fora das CTA, aerovias",2022-12-29Z,2023-01-26Z,"171","0","0","171",42.67782093728231,126.49563636009320,3.588,-29.426
"823",1517.000000000000000,2022-12-29Z,SECTOR,SBAO_S2,SB,SECTOR 2C,SAM,STD,FL,SFC,FL,FT,H24,999.000000000000000,0.000000000000000,NO,"SETOR 2C; FIR ATL�NTICO","(1) SETOR 1A
(2) SETOR 1B
(3) SETOR 1C
(4) SETOR 2A
(5) SETOR 2B
(6) SETOR 2C
(7) SETOR 3B
(8) SETOR 3C

D-VOLMET",SBAO,"CLASSE DE  ESPA�O A�REO: \nA; Acima do FL245 (exclusive); \nA; Entre os FL145 (exclusive) e FL245 (inclusive) dentro das CTA e aerovias; \nD; Abaixo do FL145 (inclusive) dentro das CTA e aerovias; \nG; Abaixo do FL245 (inclusive) fora das CTA, aerovias",2022-12-29Z,2023-01-26Z,"172","0","0","172",42.77805255257834,126.50243814667837,3.528,-29.345
"823",1517.000000000000000,2022-12-29Z,SECTOR,SBAO_S2,SB,SECTOR 2C,SAM,STD,FL,SFC,FL,FT,H24,999.000000000000000,0.000000000000000,NO,"SETOR 2C; FIR ATL�NTICO","(1) SETOR 1A
(2) SETOR 1B
(3) SETOR 1C
(4) SETOR 2A
(5) SETOR 2B
(6) SETOR 2C
(7) SETOR 3B
(8) SETOR 3C

D-VOLMET",SBAO,"CLASSE DE  ESPA�O A�REO: \nA; Acima do FL245 (exclusive); \nA; Entre os FL145 (exclusive) e FL245 (inclusive) dentro das CTA e aerovias; \nD; Abaixo do FL145 (inclusive) dentro das CTA e aerovias; \nG; Abaixo do FL245 (inclusive) fora das CTA, aerovias",2022-12-29Z,2023-01-26Z,"173","0","0","173",42.87828012620164,126.50912582855194,3.469,-29.265
"823",1517.000000000000000,2022-12-29Z,SECTOR,SBAO_S2,SB,SECTOR 2C,SAM,STD,FL,SFC,FL,FT,H24,999.000000000000000,0.000000000000000,NO,"SETOR 2C; FIR ATL�NTICO","(1) SETOR 1A
(2) SETOR 1B
(3) SETOR 1C
(4) SETOR 2A
(5) SETOR 2B
(6) SETOR 2C
(7) SETOR 3B
(8) SETOR 3C

D-VOLMET",SBAO,"CLASSE DE  ESPA�O A�REO: \nA; Acima do FL245 (exclusive); \nA; Entre os FL145 (exclusive) e FL245 (inclusive) dentro das CTA e aerovias; \nD; Abaixo do FL145 (inclusive) dentro das CTA e aerovias; \nG; Abaixo do FL245 (inclusive) fora das CTA, aerovias",2022-12-29Z,2023-01-26Z,"174","0","0","174",42.97850372863479,126.33105826199855,3.409,-29.184
"823",1517.000000000000000,2022-12-29Z,SECTOR,SBAO_S2,SB,SECTOR 2C,SAM,STD,FL,SFC,FL,FT,H24,999.000000000000000,0.000000000000000,NO,"SETOR 2C; FIR ATL�NTICO","(1) SETOR 1A
(2) SETOR 1B
(3) SETOR 1C
(4) SETOR 2A
(5) SETOR 2B
(6) SETOR 2C
(7) SETOR 3B
(8) SETOR 3C

D-VOLMET",SBAO,"CLASSE DE  ESPA�O A�REO: \nA; Acima do FL245 (exclusive); \nA; Entre os FL145 (exclusive) e FL245 (inclusive) dentro das CTA e aerovias; \nD; Abaixo do FL145 (inclusive) dentro das CTA e aerovias; \nG; Abaixo do FL245 (inclusive) fora das CTA, aerovias",2022-12-29Z,2023-01-26Z,"175","0","0","175",43.02607118271737,126.15120721509751,3.381,-29.146
"823",1517.000000000000000,2022-12-29Z,SECTOR,SBAO_S2,SB,SECTOR 2C,SAM,STD,FL,SFC,FL,FT,H24,999.000000000000000,0.000000000000000,NO,"SETOR 2C; FIR ATL�NTICO","(1) SETOR 1A
(2) SETOR 1B
(3) SETOR 1C
(4) SETOR 2A
(5) SETOR 2B
(6) SETOR 2C
(7) SETOR 3B
(8) SETOR 3C

D-VOLMET",SBAO,"CLASSE DE  ESPA�O A�REO: \nA; Acima do FL245 (exclusive); \nA; Entre os FL145 (exclusive) e FL245 (inclusive) dentro das CTA e aerovias; \nD; Abaixo do FL145 (inclusive) dentro das CTA e aerovias; \nG; Abaixo do FL245 (inclusive) fora das CTA, aerovias",2022-12-29Z,2023-01-26Z,"176","0","0","176",43.07363777475470,126.15425993593298,3.353,-29.107
"823",1517.000000000000000,2022-12-29Z,SECTOR,SBAO_S2,SB,SECTOR 2C,SAM,STD,FL,SFC,FL,FT,H24,999.000000000000000,0.000000000000000,NO,"SETOR 2C; FIR ATL�NTICO","(1) SETOR 1A
(2) SETOR 1B
(3) SETOR 1C
(4) SETOR 2A
(5) SETOR 2B
(6) SETOR 2C
(7) SETOR 3B
(8) SETOR 3C

D-VOLMET",SBAO,"CLASSE DE  ESPA�O A�REO: \nA; Acima do FL245 (exclusive); \nA; Entre os FL145 (exclusive) e FL245 (inclusive) dentro das CTA e aerovias; \nD; Abaixo do FL145 (inclusive) dentro das CTA e aerovias; \nG; Abaixo do FL245 (inclusive) fora das CTA, aerovias",2022-12-29Z,2023-01-26Z,"177","0","0","177",43.12120349525807,126.15729107228412,3.325,-29.069
"823",1517.000000000000000,2022-12-29Z,SECTOR,SBAO_S2,SB,SECTOR 2C,SAM,STD,FL,SFC,FL,FT,H24,999.000000000000000,0.000000000000000,NO,"SETOR 2C; FIR ATL�NTICO","(1) SETOR 1A
(2) SETOR 1B
(3) SETOR 1C
(4) SETOR 2A
(5) SETOR 2B
(6) SETOR 2C
(7) SETOR 3B
(8) SETOR 3C

D-VOLMET",SBAO,"CLASSE DE  ESPA�O A�REO: \nA; Acima do FL245 (exclusive); \nA; Entre os FL145 (exclusive) e FL245 (inclusive) dentro das CTA e aerovias; \nD; Abaixo do FL145 (inclusive) dentro das CTA e aerovias; \nG; Abaixo do FL245 (inclusive) fora das CTA, aerovias",2022-12-29Z,2023-01-26Z,"178","0","0","178",43.16876835243478,126.16029482414409,3.297,-29.030
"823",1517.000000000000000,2022-12-29Z,SECTOR,SBAO_S2,SB,SECTOR 2C,SAM,STD,FL,SFC,FL,FT,H24,999.000000000000000,0.000000000000000,NO,"SETOR 2C; FIR ATL�NTICO","(1) SETOR 1A
(2) SETOR 1B
(3) SETOR 1C
(4) SETOR 2A
(5) SETOR 2B
(6) SETOR 2C
(7) SETOR 3B
(8) SETOR 3C

D-VOLMET",SBAO,"CLASSE DE  ESPA�O A�REO: \nA; Acima do FL245 (exclusive); \nA; Entre os FL145 (exclusive) e FL245 (inclusive) dentro das CTA e aerovias; \nD; Abaixo do FL145 (inclusive) dentro das CTA e aerovias; \nG; Abaixo do FL245 (inclusive) fora das CTA, aerovias",2022-12-29Z,2023-01-26Z,"179","0","0","179",43.21633236691044,126.16326987976724,3.269,-28.992
"823",1517.000000000000000,2022-12-29Z,SECTOR,SBAO_S2,SB,SECTOR 2C,SAM,STD,FL,SFC,FL,FT,H24,999.000000000000000,0.000000000000000,NO,"SETOR 2C; FIR ATL�NTICO","(1) SETOR 1A
(2) SETOR 1B
(3) SETOR 1C
(4) SETOR 2A
(5) SETOR 2B
(6) SETOR 2C
(7) SETOR 3B
(8) SETOR 3C

D-VOLMET",SBAO,"CLASSE DE  ESPA�O A�REO: \nA; Acima do FL245 (exclusive); \nA; Entre os FL145 (exclusive) e FL245 (inclusive) dentro das CTA e aerovias; \nD; Abaixo do FL145 (inclusive) dentro das CTA e aerovias; \nG; Abaixo do FL245 (inclusive) fora das CTA, aerovias",2022-12-29Z,2023-01-26Z,"180","0","0","180",43.26389553291263,126.16623306932495,3.241,-28.954
"823",1517.000000000000000,2022-12-29Z,SECTOR,SBAO_S2,SB,SECTOR 2C,SAM,STD,FL,SFC,FL,FT,H24,999.000000000000000,0.000000000000000,NO,"SETOR 2C; FIR ATL�NTICO","(1) SETOR 1A
(2) SETOR 1B
(3) SETOR 1C
(4) SETOR 2A
(5) SETOR 2B
(6) SETOR 2C
(7) SETOR 3B
(8) SETOR 3C

D-VOLMET",SBAO,"CLASSE DE  ESPA�O A�REO: \nA; Acima do FL245 (exclusive); \nA; Entre os FL145 (exclusive) e FL245 (inclusive) dentro das CTA e aerovias; \nD; Abaixo do FL145 (inclusive) dentro das CTA e aerovias; \nG; Abaixo do FL245 (inclusive) fora das CTA, aerovias",2022-12-29Z,2023-01-26Z,"181","0","0","181",43.31145786671502,126.16915913991848,3.213,-28.915
"823",1517.000000000000000,2022-12-29Z,SECTOR,SBAO_S2,SB,SECTOR 2C,SAM,STD,FL,SFC,FL,FT,H24,999.000000000000000,0.000000000000000,NO,"SETOR 2C; FIR ATL�NTICO","(1) SETOR 1A
(2) SETOR 1B
(3) SETOR 1C
(4) SETOR 2A
(5) SETOR 2B
(6) SETOR 2C
(7) SETOR 3B
(8) SETOR 3C

D-VOLMET",SBAO,"CLASSE DE  ESPA�O A�REO: \nA; Acima do FL245 (exclusive); \nA; Entre os FL145 (exclusive) e FL245 (inclusive) dentro das CTA e aerovias; \nD; Abaixo do FL145 (inclusive) dentro das CTA e aerovias; \nG; Abaixo do FL245 (inclusive) fora das CTA, aerovias",2022-12-29Z,2023-01-26Z,"182","0","0","182",43.35901936905444,126.17206006074336,3.184,-28.877
"823",1517.000000000000000,2022-12-29Z,SECTOR,SBAO_S2,SB,SECTOR 2C,SAM,STD,FL,SFC,FL,FT,H24,999.000000000000000,0.000000000000000,NO,"SETOR 2C; FIR ATL�NTICO","(1) SETOR 1A
(2) SETOR 1B
(3) SETOR 1C
(4) SETOR 2A
(5) SETOR 2B
(6) SETOR 2C
(7) SETOR 3B
(8) SETOR 3C

D-VOLMET",SBAO,"CLASSE DE  ESPA�O A�REO: \nA; Acima do FL245 (exclusive); \nA; Entre os FL145 (exclusive) e FL245 (inclusive) dentro das CTA e aerovias; \nD; Abaixo do FL145 (inclusive) dentro das CTA e aerovias; \nG; Abaixo do FL245 (inclusive) fora das CTA, aerovias",2022-12-29Z,2023-01-26Z,"183","0","0","183",43.40658004595472,126.17494199834887,3.156,-28.838
"823",1517.000000000000000,2022-12-29Z,SECTOR,SBAO_S2,SB,SECTOR 2C,SAM,STD,FL,SFC,FL,FT,H24,999.000000000000000,0.000000000000000,NO,"SETOR 2C; FIR ATL�NTICO","(1) SETOR 1A
(2) SETOR 1B
(3) SETOR 1C
(4) SETOR 2A
(5) SETOR 2B
(6) SETOR 2C
(7) SETOR 3B
(8) SETOR 3C

D-VOLMET",SBAO,"CLASSE DE  ESPA�O A�REO: \nA; Acima do FL245 (exclusive); \nA; Entre os FL145 (exclusive) e FL245 (inclusive) dentro das CTA e aerovias; \nD; Abaixo do FL145 (inclusive) dentro das CTA e aerovias; \nG; Abaixo do FL245 (inclusive) fora das CTA, aerovias",2022-12-29Z,2023-01-26Z,"184","0","0","184",43.45413991802089,126.40249809485792,3.128,-28.800
"823",1517.000000000000000,2022-12-29Z,SECTOR,SBAO_S2,SB,SECTOR 2C,SAM,STD,FL,SFC,FL,FT,H24,999.000000000000000,0.000000000000000,NO,"SETOR 2C; FIR ATL�NTICO","(1) SETOR 1A
(2) SETOR 1B
(3) SETOR 1C
(4) SETOR 2A
(5) SETOR 2B
(6) SETOR 2C
(7) SETOR 3B
(8) SETOR 3C

D-VOLMET",SBAO,"CLASSE DE  ESPA�O A�REO: \nA; Acima do FL245 (exclusive); \nA; Entre os FL145 (exclusive) e FL245 (inclusive) dentro das CTA e aerovias; \nD; Abaixo do FL145 (inclusive) dentro das CTA e aerovias; \nG; Abaixo do FL245 (inclusive) fora das CTA, aerovias",2022-12-29Z,2023-01-26Z,"185","0","0","185",43.61507084887371,126.63328058534252,3.032,-28.671
"823",1517.000000000000000,2022-12-29Z,SECTOR,SBAO_S2,SB,SECTOR 2C,SAM,STD,FL,SFC,FL,FT,H24,999.000000000000000,0.000000000000000,NO,"SETOR 2C; FIR ATL�NTICO","(1) SETOR 1A
(2) SETOR 1B
(3) SETOR 1C
(4) SETOR 2A
(5) SETOR 2B
(6) SETOR 2C
(7) SETOR 3B
(8) SETOR 3C

D-VOLMET",SBAO,"CLASSE DE  ESPA�O A�REO: \nA; Acima do FL245 (exclusive); \nA; Entre os FL145 (exclusive) e FL245 (inclusive) dentro das CTA e aerovias; \nD; Abaixo do FL145 (inclusive) dentro das CTA e aerovias; \nG; Abaixo do FL245 (inclusive) fora das CTA, aerovias",2022-12-29Z,2023-01-26Z,"186","0","0","186",43.77599283765234,126.64244293794201,2.936,-28.542
"823",1517.000000000000000,2022-12-29Z,SECTOR,SBAO_S2,SB,SECTOR 2C,SAM,STD,FL,SFC,FL,FT,H24,999.000000000000000,0.000000000000000,NO,"SETOR 2C; FIR ATL�NTICO","(1) SETOR 1A
(2) SETOR 1B
(3) SETOR 1C
(4) SETOR 2A
(5) SETOR 2B
(6) SETOR 2C
(7) SETOR 3B
(8) SETOR 3C

D-VOLMET",SBAO,"CLASSE DE  ESPA�O A�REO: \nA; Acima do FL245 (exclusive); \nA; Entre os FL145 (exclusive) e FL245 (inclusive) dentro das CTA e aerovias; \nD; Abaixo do FL145 (inclusive) dentro das CTA e aerovias; \nG; Abaixo do FL245 (inclusive) fora das CTA, aerovias",2022-12-29Z,2023-01-26Z,"187","0","0","187",43.93690617586330,126.65130935157043,2.840,-28.413
"823",1517.000000000000000,2022-12-29Z,SECTOR,SBAO_S2,SB,SECTOR 2C,SAM,STD,FL,SFC,FL,FT,H24,999.000000000000000,0.000000000000000,NO,"SETOR 2C; FIR ATL�NTICO","(1) SETOR 1A
(2) SETOR 1B
(3) SETOR 1C
(4) SETOR 2A
(5) SETOR 2B
(6) SETOR 2C
(7) SETOR 3B
(8) SETOR 3C

D-VOLMET",SBAO,"CLASSE DE  ESPA�O A�REO: \nA; Acima do FL245 (exclusive); \nA; Entre os FL145 (exclusive) e FL245 (inclusive) dentro das CTA e aerovias; \nD; Abaixo do FL145 (inclusive) dentro das CTA e aerovias; \nG; Abaixo do FL245 (inclusive) fora das CTA, aerovias",2022-12-29Z,2023-01-26Z,"188","0","0","188",44.09781114659641,126.65988079493384,2.744,-28.284
"823",1517.000000000000000,2022-12-29Z,SECTOR,SBAO_S2,SB,SECTOR 2C,SAM,STD,FL,SFC,FL,FT,H24,999.000000000000000,0.000000000000000,NO,"SETOR 2C; FIR ATL�NTICO","(1) SETOR 1A
(2) SETOR 1B
(3) SETOR 1C
(4) SETOR 2A
(5) SETOR 2B
(6) SETOR 2C
(7) SETOR 3B
(8) SETOR 3C

D-VOLMET",SBAO,"CLASSE DE  ESPA�O A�REO: \nA; Acima do FL245 (exclusive); \nA; Entre os FL145 (exclusive) e FL245 (inclusive) dentro das CTA e aerovias; \nD; Abaixo do FL145 (inclusive) dentro das CTA e aerovias; \nG; Abaixo do FL245 (inclusive) fora das CTA, aerovias",2022-12-29Z,2023-01-26Z,"189","0","0","189",44.25870803256273,126.66815754251289,2.648,-28.154
"823",1517.000000000000000,2022-12-29Z,SECTOR,SBAO_S2,SB,SECTOR 2C,SAM,STD,FL,SFC,FL,FT,H24,999.000000000000000,0.000000000000000,NO,"SETOR 2C; FIR ATL�NTICO","(1) SETOR 1A
(2) SETOR 1B
(3) SETOR 1C
(4) SETOR 2A
(5) SETOR 2B
(6) SETOR 2C
(7) SETOR 3B
(8) SETOR 3C

D-VOLMET",SBAO,"CLASSE DE  ESPA�O A�REO: \nA; Acima do FL245 (exclusive); \nA; Entre os FL145 (exclusive) e FL245 (inclusive) dentro das CTA e aerovias; \nD; Abaixo do FL145 (inclusive) dentro das CTA e aerovias; \nG; Abaixo do FL245 (inclusive) fora das CTA, aerovias",2022-12-29Z,2023-01-26Z,"190","0","0","190",44.41959713010034,126.67614057023627,2.552,-28.025
"823",1517.000000000000000,2022-12-29Z,SECTOR,SBAO_S2,SB,SECTOR 2C,SAM,STD,FL,SFC,FL,FT,H24,999.000000000000000,0.000000000000000,NO,"SETOR 2C; FIR ATL�NTICO","(1) SETOR 1A
(2) SETOR 1B
(3) SETOR 1C
(4) SETOR 2A
(5) SETOR 2B
(6) SETOR 2C
(7) SETOR 3B
(8) SETOR 3C

D-VOLMET",SBAO,"CLASSE DE  ESPA�O A�REO: \nA; Acima do FL245 (exclusive); \nA; Entre os FL145 (exclusive) e FL245 (inclusive) dentro das CTA e aerovias; \nD; Abaixo do FL145 (inclusive) dentro das CTA e aerovias; \nG; Abaixo do FL245 (inclusive) fora das CTA, aerovias",2022-12-29Z,2023-01-26Z,"191","0","0","191",44.58047871318178,126.68382836534563,2.456,-27.896
"823",1517.000000000000000,2022-12-29Z,SECTOR,SBAO_S2,SB,SECTOR 2C,SAM,STD,FL,SFC,FL,FT,H24,999.000000000000000,0.000000000000000,NO,"SETOR 2C; FIR ATL�NTICO","(1) SETOR 1A
(2) SETOR 1B
(3) SETOR 1C
(4) SETOR 2A
(5) SETOR 2B
(6) SETOR 2C
(7) SETOR 3B
(8) SETOR 3C

D-VOLMET",SBAO,"CLASSE DE  ESPA�O A�REO: \nA; Acima do FL245 (exclusive); \nA; Entre os FL145 (exclusive) e FL245 (inclusive) dentro das CTA e aerovias; \nD; Abaixo do FL145 (inclusive) dentro das CTA e aerovias; \nG; Abaixo do FL245 (inclusive) fora das CTA, aerovias",2022-12-29Z,2023-01-26Z,"192","0","0","192",44.74135307147959,126.69121729128589,2.360,-27.767
"823",1517.000000000000000,2022-12-29Z,SECTOR,SBAO_S2,SB,SECTOR 2C,SAM,STD,FL,SFC,FL,FT,H24,999.000000000000000,0.000000000000000,NO,"SETOR 2C; FIR ATL�NTICO","(1) SETOR 1A
(2) SETOR 1B
(3) SETOR 1C
(4) SETOR 2A
(5) SETOR 2B
(6) SETOR 2C
(7) SETOR 3B
(8) SETOR 3C

D-VOLMET",SBAO,"CLASSE DE  ESPA�O A�REO: \nA; Acima do FL245 (exclusive); \nA; Entre os FL145 (exclusive) e FL245 (inclusive) dentro das CTA e aerovias; \nD; Abaixo do FL145 (inclusive) dentro das CTA e aerovias; \nG; Abaixo do FL245 (inclusive) fora das CTA, aerovias",2022-12-29Z,2023-01-26Z,"193","0","0","193",44.90222048836070,126.69831368146689,2.264,-27.638
"823",1517.000000000000000,2022-12-29Z,SECTOR,SBAO_S2,SB,SECTOR 2C,SAM,STD,FL,SFC,FL,FT,H24,999.000000000000000,0.000000000000000,NO,"SETOR 2C; FIR ATL�NTICO","(1) SETOR 1A
(2) SETOR 1B
(3) SETOR 1C
(4) SETOR 2A
(5) SETOR 2B
(6) SETOR 2C
(7) SETOR 3B
(8) SETOR 3C

D-VOLMET",SBAO,"CLASSE DE  ESPA�O A�REO: \nA; Acima do FL245 (exclusive); \nA; Entre os FL145 (exclusive) e FL245 (inclusive) dentro das CTA e aerovias; \nD; Abaixo do FL145 (inclusive) dentro das CTA e aerovias; \nG; Abaixo do FL245 (inclusive) fora das CTA, aerovias",2022-12-29Z,2023-01-26Z,"194","0","0","194",45.06308125474294,126.70515858996195,2.168,-27.509
